park_id,city,area,tw97x,tw97y,name,address,type1,payex,tel,totalcar,totalmotor,totalbike,totalbus,servicetime,updatetime,summary
1,臺北市,信義區,121.56299737011796,25.036088709188746,府前廣場地下停車場,松壽路1號地下,1,"計時：30元/時(9-18)，夜間10元/時(18-9)月票：全日3,400元，所在里優惠月票3,000元(信義區西村里及興隆里)，日間2,400元(7-19)，夜間1,000元(週一至週五19-8時及週六、日與行政機關放假之紀念日、民俗日)。市府員工全日月票2,900元，市府員工日間月票2,400元(7-22)，機車計次20元(當日當次，隔日另計)，機車月票300元，市府員工機車月票150元。",25420001,2025.0,1360.0,31.0,,00:00:00~23:59:59,2019-07-05 00:38:00,為地下二層停車場，計有2024個小型車停車格，1137個機車停車位
2,臺北市,信義區,121.56628039692906,25.037146691182052,松壽廣場地下停車場,松智路75號地下,1,"全日月票3,400元日間月票2,400元(7-20時)，夜間優惠月票1,000元(限週一至週五19-8時及週六、日與政府行政機關放假之紀念日、民俗日使用)，週一至週五(9-22時)計時30元，(22-9時)計時10元，週六、日與政府行政機關放假之紀念日、民俗節日(9-22時)計時40元，(22-9時)計時10元(全程以半小時計費)。",2542-0001,455.0,,,,00:00:00~23:59:59,2019-07-05 00:38:00,立體式小型車446格(含身心障礙停車位9格)。
3,臺北市,信義區,121.56622607003736,25.028806327113514,臺北市災害應變中心地下停車場,莊敬路391巷11弄2號地下,1,"小型車計時30元(全程以半小時計費)。全日月票5,000元，日間(07-19)月票2,600元，所在里民優惠(三張里)月票3,500，停車場出入口周邊服務半徑300公尺範圍內設籍里民(景新里、三犁里、景勤里、雙和里、惠安里)月票4,000元。機車計時10元(全程以半小時計費)，當日當次最高收費上限20元(隔日另計)。全日月票300元，臺北市災害應變中心進駐員工月票150元。",2759-0666,174.0,204.0,,,00:00:00~23:59:59,2019-07-05 00:38:00,立體式小型車169格(含身心障礙停車位5格)。立體式機車208格(含身心障礙停車位5格)。
4,臺北市,信義區,121.57187074799478,25.04744424267828,雅祥公園地下停車場,松隆路123巷7號地下,1,"週一至週四計時40元，週五至週日及政府行政機關放假之紀念日與民俗日計時50元(全程以半小時計費)。月租：全日4,800元，夜間2,000元(週一至週五19-08及週六、日與行政機關放假之紀念、民俗日使用)，所在里（雅祥里）優惠3,360元/月，全日里民優惠3,840元/月（限四育里、五常里、六藝里、敦厚里、新仁里、五全里及松山區慈祐里、新聚里）。",2749-51372,209.0,,,,00:00:00~23:59:59,2019-07-05 00:38:00,立體式小型車204格(含身心障礙停車位5格)。
5,臺北市,北投區,121.50356952571735,25.118430178877603,立農公園地下停車場,承德路7段372號地下,1,"計時：20元/時(以半小時計價)。月票：全日4,800元；日間(07-19)2,800元；夜間(19-08)2,000元，里民優惠3,360元。機車計次20元，全日月票300元，本場提供計程車免費一小時服務。",2823-0834,204.0,95.0,,,00:00:00~23:59:59,2019-07-05 00:38:00,立體式小型車204格(含身心障礙停車位5格)。立體式機車95格(含身心障礙停車位2格)。
6,臺北市,信義區,121.56450251083052,25.035326989797273,台北世界貿易中心展覽三館停車場,松壽路6號,1,"計時：小型車50元/時，停車未滿1小時以1小時計，逾1小時以上者，未滿半小時以半小時計。月租：小型車5,000元/月；機車500元/月。計次：機車40元/次，每隔1夜停放，加計1次收費。",2725-5200,513.0,539.0,,,00:00:00~23:59:59,2019-07-05 00:38:00,計有665格小型車格，527格機車格。
7,臺北市,萬華區,121.49920702527388,25.0289927192878,萬華國中地下停車場,西藏路201號地下,1,"計時：小型車20元/時，全程以半小時計費，月租：小型車全日4,800元/月，日間(7-19)月票2,800/月，夜間(19-8)月票2,000元/月，所在里(日善里)里民月票3,360元，300公尺內設籍里(雙園里、頂碩里、新安里、新忠里)3,840元/月，機車全日300元/月。計次：機車20元╱時。",2307-8457,519.0,215.0,,,00:00:00~23:59:59,2019-07-05 00:38:00,立體式小型車508格(含身心障礙停車位11格)。立體式機車213格(含身心障礙停車位4格)。
8,臺北市,信義區,121.56261356225248,25.035703220223642,台北君悅大飯店停車場,松壽路2號B1、B2,1,70元/時，停車逾1小時以上者，未滿半小時以半小時計費。6300元/月，34020元/半年，60480元/年。,02-2720-1005,377.0,,,,00:00:00~23:59:59,2019-07-05 00:38:00,計有390個小型車停車位。
11,臺北市,信義區,121.56086591873958,25.033317751353607,台北國際會議中心停車場,信義路五段1號,1,"50元/小時,續每半小時25元", ,483.0,,,,00:00:00~23:59:59,2019-07-05 00:38:00,計有18個大型車停車位，483個小型車停車位。
14,臺北市,信義區,121.57281004140364,25.034905910932412,興雅國中地下停車場,松德路200巷18號地下,1,"計時30元，(全程以半小時計費)。月票4,800元，日間月票3,000元(7-19)，夜間月票2,400元(19-8)，所在里(信義區安康里)優惠3,360元，停車場出入口周邊半徑300公尺鄰近里(信義區松友里三犁里)優惠3,840",2758-5499,447.0,,,,00:00:00~23:59:59,2019-07-05 00:38:00,立體式小型車447格(含身心障礙停車位9格)。
15,臺北市,萬華區,121.50538540284306,25.044036598241906,峨眉立體停車場,峨眉街83號,1,"計時：小型車週一至週五：50元/時(10-22)，10元/時(22-10)；週六至週日及政府行政機關放假之紀念日及民俗節日60元/時(10-24)，10元/時(22-10)，全程以半小時計費。月租：小型車全日月票4,800元/月，日間月票4,000元/月(10-22)，夜間月票500元/月(21-09)；機車月票300元/月。計次：機車20元/次，隔日另計。",2382-2854,529.0,1674.0,14.0,,00:00:00~23:59:59,2019-07-05 00:38:00,立體式小型車528格(含身心障礙停車位11格)。立體式機車1850格(含身心障礙停車位33格)。
16,臺北市,中正區,121.5104581152077,25.04401221409014,中山堂地下停車場,延平南路98號地下,1,"週一至週五(8-20)計時40元，(20-8)計時10元，週六、日及政府行政機關放假之紀念日與民俗節日(10-20)計時40元，(20-10)計時10元，月租全日4,600元，日間(07-19)3,600元，夜間(19-08)1,000元。",2312-0612,431.0,,,,00:00:00~23:59:59,2019-07-05 00:38:00,立體式小型車440格(含身心障礙停車位9格)。
18,臺北市,萬華區,121.50587420182578,25.04824401517855,洛陽綜合立體停車場,環河南路1段1號,1,"計時：小型車週一至週五20元/時(08-22)，10元/時(22-08)，週六、週日及政府行政機關放假之紀念日與民俗節日20元/時(08-10)，30元/時(10-22)，10元/時(22-08)。月租：小型車全日4,000元/月，日間2,400元/月(07-20)，夜間900元/月(20-07)，機車免費。",23812484,1718.0,283.0,,,00:00:00~23:59:59,2019-07-05 00:38:00,立體式小型車1676格(含身心障礙停車位64格)。立體式機車277格(含身心障礙停車位6格)。
19,臺北市,大同區,121.51098003256612,25.050819227280765,塔城公園地下停車場,塔城街11號地下,1,"計時30元。全日優惠月票5,760元，夜間月票3,000元(21-8)。",2559-0032,151.0,,,,00:00:00~23:59:59,2019-07-05 00:38:00,立體式小型車151格(含身心障礙停車位4格)。
20,臺北市,士林區,121.52399857689072,25.08615067095607,百齡高中地下停車場,承德路4段175號地下,1,"計時：週一至週四(9-22)40元，(22-09)10元；週五及假日(12-01)50元，(01-12)10元，以半小時計費。月票：日間(07-19)1,500元，夜間(21-08)1,500元，本場提供計程車免費一小時服務。",2882-3992,232.0,,,,00:00:00~23:59:59,2019-07-05 00:38:00,立體式小型車232格(含身心障礙停車位5格)。
21,臺北市,士林區,121.5202887340679,25.085372327181787,前港公園地下停車場,前港街45號地下,1,"計時20元(02-19時)，40元(19-02時)全程以半小時計費。月租：全日優惠5,200元，所在里(前港里)優惠3,640元，半徑300公尺鄰近里(後港里、百齡里、承德里、福中里、義信里、福華里)優惠4,160元，日間(07-19時)優惠2,600元，機車免費。",2881-7033,539.0,,,,00:00:00~23:59:59,2019-07-05 00:38:00,立體式小型車531格(含身心障礙停車位11格)。
22,臺北市,信義區,121.58044185302215,25.046627187102647,五分埔公園地下停車場,中坡北路57號地下,1,"周一至周四計時40元，周五至周日及行政機關放假之紀念日及民俗節日計時50元，全程以半小時計費。月票：全日月票5,500元，所在里3,850元，半徑300公尺鄰近里4,400元，夜間月票3,000元(19-8)。",2760-6275,210.0,,,,00:00:00~23:59:59,2019-07-05 00:38:00,立體式小型車210格(含身心障礙停車位4格)。
23,臺北市,松山區,121.55797440097886,25.06161215730541,民權公園地下停車場,民權東路4段180號地下,1,"計時：30元，夜間(22-8)計時10元，全程以半小時計費。月租：全日5,250元，日間2,800元(7-19)。本場提供計程車免費一小時服務。",2765-5004,714.0,,,,00:00:00~23:59:59,2019-07-05 00:38:00,立體式小型車714格(含身心障礙停車位15格)。
24,臺北市,大安區,121.53164898756437,25.029525637842056,金華公園地下停車場,金華街190號地下,1,"計時：(8-22)50元/時，(22-08)10元，全程以半小時計費。月租：全日6,000元。本場提供計程車免費一小時服務。",2357-8564,193.0,,,,00:00:00~23:59:59,2019-07-05 00:38:00,立體式小型車193格(含身心障礙停車位3格)。
25,臺北市,萬華區,121.51055594268287,25.02442151236245,古亭國中地下停車場,中華路2段606巷1號地下,1,"計時：30元/時，全程以半小時計費。月租：5,250元，夜間月票2,800元(18-8)。本場提供計程車免費一小時服務。",2339-0684,261.0,,,,00:00:00~23:59:59,2019-07-05 00:38:00,立體式小型車261格(含身心障礙停車位6格)。
27,臺北市,文山區,121.54378667327649,24.99526159883707,景華公園地下停車場,景華街55號地下,1,"計時：每小時20元(全程以半小時計費)。月租：全日優惠4,800元，所在里全日月票2,800元，半徑300公尺鄰近里3,200元/月,日間(7-19)2,400元，夜間(19-8)1,500元。",2930-2054,746.0,,,,00:00:00~23:59:59,2019-07-05 00:38:00,立體式小型車746格(含身心障礙停車位15格)。
28,臺北市,信義區,121.56407485537355,25.04407661526927,松山高中地下停車場,基隆路1段156號地下,1,"週一至週五(08-20時)計時30元，(20-08時)計時10元，假日(08-20時)計時30元，(20-08時)計時10元(全程以半小時計費)。月租：全日優惠5,760元，(新仁里、興雅里、敦厚里)里民全日優惠4,600元。",2768-5492,228.0,,,,00:00:00~23:59:59,2019-07-05 00:38:00,立體式小型車228格(含身心障礙停車位5格)。
29,臺北市,內湖區,121.61569878217956,25.06854628181809,東湖國小地下停車場,東湖路115號之1地下,1,"計時：小型車每小時40元(08-18)、20元(18-08)，全程以半小時計費。月租：小型車全日月票4,000元，小型車日間月票2,000元(07-19)，夜間2,000元(19-08)，所在里及一般里民優惠全日月票2,800元，機車月票300元/月。計次機車20元/次，隔日另計。",2630-6731,365.0,111.0,,,00:00:00~23:59:59,2019-07-05 00:38:00,立體式小型車358格(含身心障礙停車位7格)。立體式機車109格(含身心障礙停車位2格)。
30,臺北市,大同區,121.51046823543527,25.058392751562074,大稻埕公園地下停車場,歸綏街243號地下,1,"小型車計時:40元(08-19)，10元/時(19-8)，全程以半小時計費。小型車月票:全日5,760元/月，夜間2,000元(19-8)。里民優惠(大同區延平里、永樂里、南芳里、朝陽里)4,600元/月，所在里(大有里)4,032元/月",2549-1705,200.0,,,,00:00:00~23:59:59,2019-07-05 00:38:00,立體式小型車200格(含身心障礙停車位5格)。
31,臺北市,大安區,121.54229164705092,25.03629138282754,附中公園地下停車場,復興南路1段340巷11號地下,1,"計時：(8-21)50元/時，(21-8)10元/時，全程以半小時計費。月租：全日5,760元。本場提供計程車免費一小時服務。",2701-4453,118.0,,,,00:00:00~23:59:59,2019-07-05 00:38:00,立體式小型車118格(含身心障礙停車位4格)。
32,臺北市,松山區,121.56588227110706,25.05581214943516,西松高中地下停車場,健康路325巷19弄1號地下,1,"計時：30元，夜間(22-8)計時10元，全程以半小時計費。月租：全日5,250元，日間2,800元(7-20)，夜間2,450元(18-9)，本場供計程車免費一小時服務。",2528-4554,341.0,,,,00:00:00~23:59:59,2019-07-05 00:38:00,立體式小型車341格(含身心障礙停車位7格)。
33,臺北市,中山區,121.53770545216665,25.04611262881945,進安公園地下停車場,八德路2段158號地下,1,"計時20元，全程以半小時計費。全日月票4,800元/月，里民優惠月票3,840元/月(中山區朱崙里、力行里、朱園里；大安區民輝里、昌隆里)，所在里民月票3,360元/月(中山區埤頭里)。日間月票3,000元/月(07-20時)，夜間月票2,000元/月(20-07時)",2542-1501,154.0,,,,00:00:00~23:59:59,2019-07-05 00:38:00,為地下三層停車場，計有150個小型車停車格
34,臺北市,文山區,121.55862425840431,25.006274813151652,辛亥國小地下停車場,辛亥路4段103號地下,1,計時：20元(08-18)/時，10元(18-隔日08)/時，全程以半小時計費。月租：全日月票3840元/月，里民優惠(興昌里)全日月票2688元/月，里民優惠(興泰里)全日月票3000元/月。,29300568,132.0,,,,00:00:00~23:59:59,2019-07-05 00:38:00,為地下二層停車場，計有129個小型車停車格。
35,臺北市,大同區,121.51980808757489,25.06090654060606,成淵高中地下停車場,承德路2段235號之1地下,1,"計時40元(09-21時)，30元(21-09時)全程以半小時計費。月租：全日優惠5,760元，夜間(19-08)優惠月票2,400元。本場提供計程車免費一小時服務。",2552-0589,273.0,,,,00:00:00~23:59:59,2019-07-05 00:38:00,立體式小型車273格(含身心障礙停車位6格)。
36,臺北市,北投區,121.50393618280559,25.131128358367587,大豐公園地下停車場,大興街145號地下,1,"計時：(7-22)40元/時，(22-7)10元/時，全程以半小時計費。月租：全日月票4,000元，所在里3,500元。",2892-1209,235.0,,,,00:00:00~23:59:59,2019-07-05 00:38:00,立體式小型車235格(含身心障礙停車位5格)。
37,臺北市,大安區,121.54185489755186,25.032635068867478,大安高工地下停車場,信義路3段166巷6弄12號地下,1,"計時：30元/時(9-21)，10元/時(21-9)，全程以半小時計費。月租：全日5,760元，日間4,200元(7-20)，夜間1,500元(20-7)。本場提供計程車免費一小時服務。",2702-7924,526.0,,,,00:00:00~23:59:59,2019-07-05 00:38:00,立體式小型車526格(含身心障礙停車位11格)。
38,臺北市,南港區,121.58604996369648,25.045886358296862,成德立體停車場,成福路1號,1,"計時：週一到週五(08-18)20元/時，週一到週五(18-08)及假日全日30元/時。全程以半小時計費，月租：全日4,500元/月，里民優惠3,600元/月(萬福里、鴻福里、聯成里、合成里)， 所在里里民優惠3,150元/月(成福里)，日間(07-19)2,200元/月，夜間(19-07)2,400元/月。",2240-8767,185.0,,,,00:00:00~23:59:59,2019-07-05 00:38:00,塔台式小型車180格(含身心障礙停車位5格)。
39,臺北市,士林區,121.50595330964892,25.08958139058102,社園立體停車場,延平北路6段180號,1,"計時：20元/時，全程以半小時計費。月租：全日3,600元/月，全日里民優惠(社新里、社子里、永倫里)2,880元/月，所在地全日里民優惠(社園里)2,520元/月，夜間18-08)1,800元/月(。",2816-4583,266.0,,,,00:00:00~23:59:59,2019-07-05 00:38:00,塔台式小型車280格(含身心障礙停車位6格)。
40,臺北市,松山區,121.562354692473,25.05653795039661,健康國小地下停車場,延壽街168號地下,1,"計時：30元/時，全程以半小時計費。月租：全日5,250元。本場提供計程車免費一小時服務。",2759-0666,195.0,,,,00:00:00~23:59:59,2019-07-05 00:38:00,立體式小型車195格(含身心障礙停車位5格)。
41,臺北市,信義區,121.56778323294876,25.04041931206566,忠信地下停車場,松仁路2號地下,1,"小型車：計時40元/時(全程以半小時計費)，全日月票5,200元，日間(07-19)月票3,600元，夜間(19-08)月票2,880元，所在里(信義區興雅里)，半徑300公尺鄰近里(信義區西村里、廣居里、安康里、富台里、敦厚里、六藝里)優惠4,160元。機車計時10元/時(全程以半小時計費)，當日當次最高收費上限20元(隔日另計)，全日月票300元。",2759-0666,321.0,260.0,22.0,,00:00:00~23:59:59,2019-07-05 00:38:00,立體式小型車314格(含身心障礙停車位7格)。立體式機車255格(含身心障礙停車位5格)。
42,臺北市,大同區,121.5198757171899,25.051488848561764,建成國中地下停車場,長安西路37號之一地下,1,"周一至周五(08-22)計時30元，(22-08)計時10元，周六、日與行政機關放假之紀念日與民俗日(08-22)計時40元，(22-08)計時10元，全程以半小時計費。月票：全日月票7,200元，所在里5,040元，半徑300公尺鄰近里5,760元，日間月票4,800元(8-19)，夜間月票2,400元(19-8)。機車計時10元(當日當次最高收費上限30元，隔日另計)，月票300元。",2759-0666,337.0,163.0,16.0,,00:00:00~23:59:59,2019-07-05 00:38:00,立體式小型車330格(含身心障礙停車位7格)。立體式機車160格(含身心障礙停車位3格)。
43,臺北市,南港區,121.60650227183163,25.056104488283676,興中立體停車場,興中路44巷1號,1,"計時：小型車20元/時，全程以半小時計費。月租：小型車全日月票3,000元/月，所在里2,100元，半徑300公尺鄰近里2,400元。機車計次20元，跨日重新計算，機車月票300元/月。",2783-2912,639.0,152.0,15.0,,00:00:00~23:59:59,2019-07-05 00:38:00,立體式小型車639格(含身心障礙停車位13格)。立體式機車152格(含身心障礙停車位4格)。
44,臺北市,萬華區,121.50778273012159,25.023778999964488,青年公園高爾夫球場地下停車場,國興路5號地下,1,"計時30元，全程以半小時計費。月租：全日月票4,800元，夜間月票2,400元(18-8)。機車計次20元，機車月票300元。本場提供計程車免費一小時服務。",2337-9616,321.0,157.0,,,00:00:00~23:59:59,2019-07-05 00:38:00,立體式小型車321格(含身心障礙停車位6格)。立體式機車157格(含身心障礙停車位7格)。
46,臺北市,松山區,121.57877281926037,24.997363523244907,動物園站地下停車場,新光路2段28號,1,汽車：平日20元/時(06-22)，10元/時(22-06)，假日60元/時(06-22)，10元/時(22-06)，全程以半小時計費。限時日間月票：800元/月(週一至五，平日06-21時)，機車20元/次，隔日另計(凌晨2時為基準跨日另計費)。全時月票：300元/月。,25505600,154.0,204.0,0.0,0.0,00:00:00~23:59:59,2019-12-20 00:00:00,為地下立體停車場，計有200格機車格，150格小型車格
48,臺北市,信義區,121.56581167641671,25.03314606880137,信義廣場地下停車場,信義路5段11號地下,1,"周一至周五(8-22)計時40元，(22-8)計時10元，周六、周日及政府行政機關放假之紀念日與民俗節(8-22)計時50元，(22-8)計時10元，全程以半小時計費。月票：全日月票4,800元，所在里3,360元，半徑300公尺鄰近里3,840元，日間月票3,500(7-20)，夜間月票500元(21-8)。機車計次20元，跨日重新計算，月票300元。",8780-0133,372.0,233.0,24.0,,00:00:00~23:59:59,2019-07-05 00:38:00,立體式小型車372格(含身心障礙停車位8格)。立體式機車233格(含身心障礙停車位3格)。
49,臺北市,北投區,121.50289064999548,25.137677838648113,大業立體停車場,大業路745號,1,"計時：30元/時，全程以半小時計費。月租：全日3,000元/月。",2891-7080,124.0,,,,00:00:00~23:59:59,2019-07-05 00:38:00,塔台式小型車122格(含身心障礙停車位2格)。
51,臺北市,內湖區,121.60173731814156,25.08336181781768,大湖公園地下停車場,成功路5段7號地下,1,計時：小型車20元/時，全程以半小時計費；機車10元/時，全程以半小時計費，當日當次最高收費上限20元，隔日另計。全日月票：小型車2400元/月，日間月票(07-20)：1200元/月，全日月票里民優惠(內湖區清白里、大湖里、秀湖里)2400元/月；機車全日月票300元/月。,8791-8523,221.0,66.0,,,00:00:00~23:59:59,2019-07-05 00:38:00,為地下停車場，計有221個小型車格，66個機車格
52,臺北市,松山區,121.5626981449082,25.05976155244087,民生社區活動中心地下停車場,民生東路5段163號之1號地下2、3F層,1,"計時30元，全程以半小時計費。月租:全日5,760元/月，全日里民優惠4,032元/月所在里（三民里），全日里民優惠4,600元/月(富錦、東榮、介壽、富泰、新東、新益、精忠、東昌、莊敬里)。",2240-8767,155.0,,,,00:00:00~23:59:59,2019-07-05 00:38:00,為地下停車場，計有151個小型車格
53,臺北市,松山區,121.55946421715021,25.058343550158003,民生立體停車場,民生東路5段84號,1,"計時：30元/時，全程以半小時計費。月租：全日5,760元，里民優惠4,600元。本場提供計程車免費一小時服務。",2760-8303,457.0,,10.0,,00:00:00~23:59:59,2019-07-05 00:38:00,立體式小型車457格(含身心障礙停車位10格)。
54,臺北市,松山區,121.552416915505,25.04872111671006,北寧路地下停車場,八德路3段25號地下1層及地下2層,1,"計時：40元/時(09-21)，30元/時(21-09)，全程以半小時計費。月租：夜間(18-09)，周六、日及行政機關放假之紀念日、民俗節日之全日2,000元/月。",2799-5657,78.0,,,,00:00:00~23:59:59,2019-07-05 00:38:00,為地下停車場，計有78個小型車
55,臺北市,大同區,121.50914031991236,25.05036610494072,市民大道(塔城段),西寧北路-塔城街(地下),1,"計時：20元(8-20)，10元(20-8)，月租：日間2,400元(7-19)，夜間時段促銷優惠月票500元(18-9，假日白天亦可使用)。本場提供計程車免費一小時服務。",2550-5056,252.0,,,,00:00:00~23:59:59,2019-07-05 00:38:00,立體式小型車252格(含身心障礙停車位11格)。
56,臺北市,大安區,121.5373452797315,25.032950271862003,大安森林公園地下停車場,建國南路2段2號地下,1,"周一至周五(8-23)計時20元，(23-8)計時10元，周六、周日及政府行政機關放假之紀念日與民俗日(8-23)計時40元，(23-8)計時10元，全程以半小時計費。月票：全日月票4,800元，所在里3,360元，半徑300公尺鄰近里3,480元，日間月票2,800元(7-19)，夜間月票2,000元(18-8)，機車計時10元(當日當次最高收費上限20元，隔日另計)，月票300元。",2759-0666,1387.0,352.0,20.0,,00:00:00~23:59:59,2019-07-05 00:38:00,立體式小型車1360格(含身心障礙停車位27格)。立體式機車344格(含身心障礙停車位8格)。
57,臺北市,中山區,121.51920471889113,25.04833804736813,市民大道(公中段),公園路-中山北路(地下),1,"計時：30元/時，夜間10元/時(18-8)。全程以半小時計費。月租：全日4,800元，日間3,000元(7-19)，夜間1,200元(20-8)。",2531-9579,184.0,,,,00:00:00~23:59:59,2019-07-05 00:38:00,立體式小型車184格(含身心障礙停車位4格)。
58,臺北市,中山區,121.52273724010206,25.047902151488532,市民大道(中林段),中山北路-林森北路(地下),1,"計時20元，全程以半小時計費。月票：全日月票3,600元，所在里2,520元，半徑300公尺鄰近里2,880元，日間月票2,400元(7-19)，夜間月票1,200元(周一至周五19-8，及周六、日與行政機關放假之紀念日、民俗日)。",2395-5514,496.0,,,,00:00:00~23:59:59,2019-07-05 00:38:00,立體式小型車496格(含身心障礙停車位10格)。
59,臺北市,中山區,121.5272501521425,25.047065189242954,市民大道(林金段),林森北路-金山北路(地下),1,"計時20元，全程以半小時計費。月票：全日月票3,600元，所在里2,520元，半徑300公尺鄰近里2,880元，日間月票2,400元(7-19)，夜間月票1,000元(周一至周五19-8，及周六、日與行政機關放假之紀念日、民俗日)。",2531-4533,970.0,,,,00:00:00~23:59:59,2019-07-05 00:38:00,立體式小型車970格(含身心障礙停車位20格)。
60,臺北市,中山區,121.54088484378572,25.044556204258672,市民大道(建復段),建國北路-復興南路(地下),1,計時：30元/時。,2775-1072,178.0,,,,00:00:00~23:59:59,2019-07-05 00:38:00,立體式小型車178格(含身心障礙停車位4格)。
61,臺北市,北投區,121.53895031784315,25.15518219202568,陽明山立體停車場,湖山路(陽明山公園大門口旁),1,計時：週一至週五：小型車每小時20元。週六日、政府行政機關放假之紀念日及民俗節日：小型車每小時30元。(全程以半小時計算收費)。計次：機車每次20元(隔日另計)。花季及海芋季期間所有車種之收費費率及方式，依停管處通知之收費標準及方式實施。每日19時至羿日07時(含例假日)開放免費停車。,2655-0818,213.0,251.0,,,00:00:00~23:59:59,2019-07-05 00:38:00,為立體停車場，有246個機車格，209個小型車格
62,臺北市,松山區,121.54677245856213,25.04507796155886,市民大道(復敦段),復興南路-敦化南路(地下),1,"計時：週日至週四：(8-12)30元，(12-23)40元，(23-08)10元，週五至週六：(8-12)40元，(12-23)50元，(23-08)10元，全程以半小時計費。月租：全日6,500，日間(7-19)3,600元，夜間(19-8)3,000元。本場提供計程車免",2721-1136,214.0,,,,00:00:00~23:59:59,2019-07-05 00:38:00,立體式小型車214格(含身心障礙停車位5格)。
64,臺北市,松山區,121.55060930717137,25.044666195333274,市民大道(敦延段),敦化南路-延吉街(地下),1,"計時：週一週五：(8-22)30元，(22-8)10元，週六至週日：(8-18)30元，(18-23)40元，(23-08)10元，全程以半小時計費。月租：全日6,500，日間(7-19)3,600元，夜間(19-8)3,000元。本場提供計程車免費一小時服務",2577-4364,217.0,,,,00:00:00~23:59:59,2019-07-05 00:38:00,立體式小型車217格(含身心障礙停車位5格)。
65,臺北市,松山區,121.5535757807958,25.044366905713282,市民大道(延吉段),延吉街兩側(地下),1,"計時：週日至週四30元/時(08-12)，40元/時(12-23)，10元/時(23-08)，週五至週六：40元/時(8-12)，50元/時(12-23)，10元/時(23-08)，全程以半小時計費。月租：全日月票6,500元/月，日間月票3,600元/月(07-19)，夜間月票3,000元(19-08)。",2579-3244,81.0,,,,00:00:00~23:59:59,2019-07-05 00:38:00,立體式小型車79格(含身心障礙停車位2格)。
66,臺北市,大同區,121.51582577586326,25.067464151753448,揚雅立體停車場,大龍街136號,1,"計時：20元/時，全程以半小時計費。月租：全日3,840元。全日里民優惠3,000元(斯文里、至聖里、國慶里、隆和里、蓬萊里)。所在里全日里民優惠2,688元(揚雅里)。",25632408,205.0,,,,00:00:00~23:59:59,2019-07-05 00:38:00,塔台式小型車204格(含身心障礙停車位5格)。
67,臺北市,萬華區,121.49165506204076,25.02772831288209,雙園國中地下停車場,西園路2段320巷55弄3號地下。,1,"計時：30元/時(08-22)，10元/時(22-8)，全程以半小時計費，月票：全日5,200元。本場提供計程車免費一小時服務。",2301-6115,321.0,,,,00:00:00~23:59:59,2019-07-05 00:38:00,立體式小型車321格(含身心障礙停車位7格)。
68,臺北市,士林區,121.5208330331274,25.09965510813539,文昌國小地下停車場,文林路615巷20號地下,1,"計時：小型車20元/時，機車10元/時，機車當日當次上限20元，隔日另計，全程以半小時計費。月租：小型車全日4,800元，里民優惠全日(德行里、福佳里、舊佳里)3,840元/月，所在里里民優惠全日(德華里)3,360元/月。機車300元/月。",2788-8750,227.0,299.0,10.0,,00:00:00~23:59:59,2019-07-05 00:38:00,立體式小型車222格(含身心障礙停車位5格)。立體式機車293格(含身心障礙停車位6格)。
69,臺北市,萬華區,121.50327019258265,25.023545259234066,青年公園棒球場地下停車場,青年路69號地下,1,"計時30元，全程以半小時計費。月租：全日月票4,800元，夜間月票2,400元(18-8)。機車計次20元，機車月票300元。本場提供計程車免費一小時服務。",2309-2133,276.0,118.0,,,00:00:00~23:59:59,2019-07-05 00:38:00,立體式小型車276格(含身心障礙停車位6格)。立體式機車118格(含身心障礙停車位3格)。
70,臺北市,中山區,121.53960746902916,25.063888748341174,榮星花園地下停車場,建國北路3段39號地下,1,"小型車計時：40元/時，全程以半小時計費。小型車月租：全日5,400元/月，所在里(行仁里)全日里民優惠月票3,780元/月，周邊里(行孝里、下埤里、江寧里、松江里、行政里)里民優惠月票4,320元/月。機車計次20元(隔日另計)。機車月租:300元/月",2455-1299,247.0,69.0,,,00:00:00~23:59:59,2019-07-05 00:38:00,立體式小型車242格(含身心障礙停車位5格)。立體式機車67格(含身心障礙停車位2格)。
71,臺北市,大同區,121.51317025986202,25.055951545537717,朝陽公園地下停車場,重慶北路2段68號地下,1,"計時40元(08-22時)，10元(22-08時)全程以半小時計費。月租：全日優惠5,760元，所在里優惠4,032元，半徑300公尺鄰近里優惠4,600元，夜間(19-08)優惠月票2,400元。本場提供計程車免費一小時服務。",2555-7351,242.0,,,,00:00:00~23:59:59,2019-07-05 00:38:00,立體式小型車242格(含身心障礙停車位5格)。
72,臺北市,士林區,121.53026025087205,25.095814412331986,福林公園地下停車場,中正路17號地下,1,"小型車計時：30元/時，全程以半小時計費，小型車月票：全日4,800元/月，夜間2,600元/月(限周一至周五20-8及周六、日與行政機關放假之紀念日、民俗日使用)。里民優惠(士林區福林里、福志里、舊佳里)全日月票3,360元/月。機車計次20元(隔日另計)，月票300元/月。",2883-0481,248.0,64.0,,,00:00:00~23:59:59,2019-07-05 00:38:00,立體式小型車242格(含身心障礙停車位5格)。立體式機車62格(含身心障礙停車位2格)。
73,臺北市,中山區,121.525973337181,25.05244900448581,林森公園地下停車場,南京東路1段35號地下,1,"周一至周五(8-24)計時30元，(0-8)計時10元，周六至周日及政府行政機關放假之紀念日及民俗節日(0-8)計時10元，(8-12)計時30元，(12-24)計時40元，全程以半小時計費。月票：全日月票4,200元，所在里2,940元，半徑300公尺鄰近里3,360元，日間月票3,200元(7-19)，夜間月票1,200元(19-8)。",2521-1965,850.0,,,,00:00:00~23:59:59,2019-07-05 00:38:00,立體式小型車850格(含身心障礙停車位17格)。
74,臺北市,松山區,121.56206189634548,25.047283422847304,偶戲博物館地下停車場,市民大道5段99號(地下一層),1,"計時：小型車星期一至星期五30元/時，星期六至星期日、政府行政機關放假之紀念日、民俗節日及政府機關彈性調整放假日40元/時，機車10元/時，機車當日當次收費上限20元(隔日另計)，全程以半小時計費。月租：全日5,400元/月，全日里民優惠4,200元/月(吉祥里、新仁里)，所在里里民優惠3,675元/月(復盛里)。機車全日300元/月。",2655-0818,71.0,47.0,,,00:00:00~23:59:59,2019-07-05 00:38:00,為立體、地下停車場，計有69個小型車停車位。45個機車停車位
75,臺北市,松山區,121.56116286458193,25.05001283948455,中崙高中地下停車場,八德路4段101號地下,1,"計時：週一至週五30元/時，周六至周日、政府行政機關放假之紀念日、民俗節日及政府機關彈性調整放假日40元/時，全程以半小時計費。月租：全日5,200元，日間(07-19)4,400元，夜間(19-08)2,400元，全日里民優惠(復盛里、東光里、新聚里、安平里)4,160元，全日所在地里里民優惠(吉祥里)3,640元。",2655-0818,354.0,,20.0,,00:00:00~23:59:59,2019-07-05 00:38:00,立體式小型車347格(含身心障礙停車位7格)。
76,臺北市,北投區,121.54557029119327,25.154873120771466,陽明山第二停車場,陽金公路(陽明山國家公園遊客服務中心對面),1,計時：週一至週五：小型車每小時20元；大客車每小時40元。週六日、政府行政機關放假之紀念日及民俗節日：小型車每小時30元；大客車每小時60元(全程以半小時計算收費)。計次：機車每次20元。花季及海芋季期間所有車種之收費費率及方式，依停管處通知之收費標準及方式實施。每日19時至羿日07時(含例假日)開放免費停車。,2655-1516,134.0,152.0,,83.0,07:00:00~19:00:00,2019-07-05 00:38:00,為平面停車場，計有83個大型車停車位，127個小型車停車位，149個機車停車位。
77,臺北市,北投區,121.53927451174792,25.158503111268182,陽明山花鐘停車場,湖山路2段(陽明山公園花鐘前),1,週一至週五小型車每小時20元；大型車每小時40元，週六日、政府行政機關放假之紀念日及民俗節日：小型車每小時30元；大型車每小時60元(停車時數以半小時計算收費)。每日19-7（含例假日）開放免費停車。,2655-1516,31.0,,,30.0,00:00:00~23:59:00,2019-07-05 00:38:00,為平面停車場，計有30個大型車停車格，54格小型車。
78,臺北市,內湖區,121.56932190970569,25.07938297233633,洲子立體停車場,瑞光路513巷22弄2號,1,"週一至週五計時：30元/時(8-20)，計時10元(20-8)，時段上限50元。假日計時20元，單次停車最高收費上限為100元，隔夜另計。月租：全日3,000元，日間月票2,000元(08-21)，夜間月票(一)1,200元(限週一至週五19-08，及週六-日與行政機關放假之紀念日與民俗日)，夜間月票(二)1,000元(限週一至週五15-1，及週六-日與行政機關放假之紀念日與民俗日)",2759-0666,392.0,,31.0,,00:00:00~23:59:59,2019-07-05 00:38:00,立體式小型車392格(含身心障礙停車位8格)。
79,臺北市,大安區,121.55666432210678,25.04099882470048,僑安地下停車場,忠孝東路4段306號地下,1,"計時：40元/時(08-22)，30元/時(22-翌日08)，全程半小時計費。月租：全日7,200元/月，日間4,200元/月(08-20)，夜間3,600元/月(20-翌日08)，全日里民優惠5,760元/月，所在地全日里民優惠5,040元/月。",2799-5657,432.0,,18.0,,00:00:00~23:59:59,2019-07-05 00:38:00,立體式小型車422格(含身心障礙停車位10格)。
80,臺北市,大安區,121.53862539572756,25.02349846346492,龍門國中地下停車場,建國南路2段269號地下,1,"計時：30元/時，全程以半小時計費。月租：全日4,320元/月，日間(07-19)2,700元，夜間(19-08)1,800元，。機車計次：20元/次。機車月租：300元/月。本場提供計程車免費一小時服務。",2739-8983,730.0,370.0,24.0,,00:00:00~23:59:59,2019-07-05 00:38:00,立體式小型車730格(含身心障礙停車位16格)。立體式機車370格(含身心障礙停車位8格)。
81,臺北市,內湖區,121.61911798311668,25.07211742532701,康樂立體停車場,康樂街138號,1,"計時：30元/時，全程以半小時計費。月租：4,000元，所在里優惠月票2,800元(康樂里)，優惠里月票3,200元(安泰、內溝、東湖里)。",2563-2408,156.0,,,,00:00:00~23:59:59,2019-07-05 00:38:00,機械式小型車153格(含身心障礙停車位3格)。
82,臺北市,中山區,121.52469137560169,25.05916311019105,永盛公園地下停車場,中山北路2段93巷30號地下,1,"(8-24)計時40元，(0-8)計時30元，全程以半小時計費。月票：全日月票4800元，所在里3,360元，半徑300公尺鄰近里3,840元。機車計次20元，跨日重新計算，月票300元。",2581-5531,224.0,62.0,,,00:00:00~23:59:59,2019-07-05 00:38:00,立體式小型車224格(含身心障礙停車位5格)。立體式機車62格(含身心障礙停車位1格)。
84,臺北市,內湖區,121.601578273996,25.073100102181854,麗湖國小地下停車場,金湖路363巷8號地下,1,"計時:20元(08-18時)，10元(18-隔日08時)，全程以半小時計費。月租:2,500元/月，里民優惠1,750元/月(金湖里)，2,000元/月(寶湖里、紫雲里)。",2630-5398,235.0,,,,00:00:00~23:59:59,2019-07-05 00:38:00,計有229小型車格
85,臺北市,文山區,121.54062927002998,25.00442671909657,臺北花木批發市場地下停車場,興隆路1段15號地下,1,"計時：小型車20元/時，每12小時上限100元，機車10元/時，機車當日當次最高收費上限20元(隔日另計)，全程以半小時計費。月租：全日3,500元/月，日間1,500元(07-19)，夜間月票1,500元(19-08)，全日里民優惠(萬盛里)2,450元/月，全日里民優惠(萬年里、萬祥里、萬隆里、萬有里、興豐里)2,800元/月，機車全日300元/月。",29327747,418.0,,,,00:00:00~23:59:59,2019-07-05 00:38:00,立體式小型車409格(含身心障礙停車位9格)。
86,臺北市,北投區,121.52352314355578,25.118592806975123,振興公園地下停車場,天母西路112號地下,1,"計時：小型車40元/時(8-23時)，20元/時(23-翌日8時)；機車10元/時，當日最高收費上限20元(隔日另計)；全程以半小時計費。全日月租：小型車4,200元，里民優惠3,360元/月(優惠里振華里、永欣里、天壽里、天玉里)，所在里民優惠2,940元/月(榮華里）。夜間月票2,000(19-翌日8時)，機車300元/月。",2655-0818,218.0,104.0,,,00:00:00~23:59:59,2019-07-05 00:38:00,立體式小型車213格(含身心障礙停車位5格)。立體式機車102格(含身心障礙停車位2格)。
87,臺北市,松山區,121.5470591269533,25.060682527268305,民有市場地下停車場,民權東路3段140巷15號地下,1,"計時：30元/時，全程以半小時計費。月票：全日：5,750元，夜間(19-8)3,200元，機車免費。本場提供計程車免費一小時服務。",8712-5731,334.0,421.0,,,00:00:00~23:59:59,2019-07-05 00:38:00,立體式小型車334格(含身心障礙停車位7格)。機車421格。
88,臺北市,信義區,121.56674890934812,25.030915456197857,三張里地下停車場,松平路81號地下,1,"小型車：計時30元(全程以半小時計費)。全日優惠月票5,000元，日間月票2,600元(7-19)，夜間月票2,600元(19-8)，所在里(三張里)優惠月票3,500元，優惠里(景新里、西村里、安康里、三犁里)優惠4,000元，機車：月票300元，計次20元(隔日另計)",2723-3628,362.0,211.0,,,00:00:00~23:59:59,2019-07-05 00:38:00,立體式小型車356格(含身心障礙停車位8格)。立體式機車220格(含身心障礙停車位4格)。
89,臺北市,信義區,121.5806999487298,25.042242528620186,春光公園地下停車場,忠孝東路5段666號地下,1,"小型車計時30元，月票：全日6,000元，日間3,600元(7-19)，夜間3,600元(19-8)，所在里(松光里)優惠4,200，停車場出入口周邊服務半徑300公尺內里民優惠4,800元，機車計次20元,全日月票300元",2726-8210,218.0,71.0,,,00:00:00~23:59:59,2019-07-05 00:38:00,立體式小型車213格(含身心障礙停車位5格)。立體式機車68格(含身心障礙停車位3格)。
90,臺北市,萬華區,121.49126870827492,25.02862996610525,萬板地下停車場,艋舺大道462號地下,1,"計時：30元/時，全程以半小時計費。月租：全日5,200元。全日里民優惠(綠堤、和平、華江、錦德里)4,160元/月，所在里全日里民優惠(和德里)3,640元/月，日間(周一至周日7時至19時)3,600元/月",0986-872-116,184.0,,,,00:00:00~23:59:59,2019-07-05 00:38:00,立體式小型車180格(含身心障礙停車位4格)。
91,臺北市,萬華區,121.50005209491741,25.036264016143466,艋舺公園地下停車場,西園路1段145號地下,1,"計時：週一至週五30元/時(08-22)，10元/時(22-08)；週六日、政府行政機關放假之紀念日及民俗節日40元/時(08-22)，10元/時(22-08)，機車10元/時，機車當日當次收費上限20元(隔日另計)，全程以半小時計費。月租：全日4,800元/月，全日里民優惠(青山里、富福里、福音里、糖部里)3,840元/月。所在里全日里民優惠(富民里)3,360元/月，日間(每日07-19時)，日間時段性(每日10-22時)、夜間(每日17-08時)2,400元/月，機車全日300元/月。",2799-5657,533.0,280.0,48.0,,00:00:00~23:59:59,2019-07-05 00:38:00,立體式小型車474格(含身心障礙停車位13格)。立體式機車274格(含身心障礙停車位6格)。
92,臺北市,中山區,121.5616306990904,25.079499396571123,濱江國中地下停車場,樂群2路266巷1號地下,1,計時:日間20元/時(8-18)，夜間10元/時(18-08)，全程以半小時計費，每晚上限30元。全日月票2500元/月，日間1500元/月(7-20)，夜間500元/月(18-翌日08),2455-1299,215.0,138.0,15.0,,00:00:00~23:59:59,2019-07-05 00:38:00,為地下停車場，計有209個小型車格，135個機車格。
93,臺北市,大同區,121.51838597030627,25.05398598577507,建成公園地下停車場,承德路2段31號地下,1,"周一至周五計時30元，周六、日與行政機關放假之紀念日與民俗日計時：(10-22)計時40元，(22-10)計時30元，全程以半小時計費。月票：全日月票5,760元，所在里4,032元，半徑300公尺鄰近里4,608元。機車計次20元，跨日重新計算，月票300元。",2555-9857,238.0,172.0,,,00:00:00~23:59:59,2019-07-05 00:38:00,立體式小型車238格(含身心障礙停車位6格)。立體式機車172格(含身心障礙停車位4格)。
94,臺北市,士林區,121.52456780319136,25.082287639487948,捷運劍潭站轉乘停車場,中山北路5段65號,1,"計時：小型車平日20元/時(06-24)，10元/時(00-06)；假日40元/時(16-24)，30元/時(00-16)。全程以半小時計費。限時月票：1,500元/月(平日周一至周五06-22時)。月票：3,000元/月。機車：計次收費20元/次，隔日另計(凌晨2時為基準跨日另計費)月票：300元/月。",2550-5600,142.0,155.0,,,00:00:00~23:59:59,2019-07-05 00:38:00,為平面停車場，計有139個小型車停車位，150個機車格。
95,臺北市,北投區,121.49814722449423,25.132834903133283,捷運北投站轉乘停車場,光明路1號,1,"計時：平日30元/時(06-24)，10元/時(00-06)，假日40元/時(11-22)，30元/時(06-11，22-24)，10元/時(00-06)，車輛進場未滿10分鐘內免費，全程以半小時計費。全時月租：3,500元。機車：20元/次(以凌晨2時為跨日基準)。",2705-7716,87.0,562.0,,,00:00:00~23:59:59,2019-07-05 00:38:00,為平面停車場，計有85個小型車停車位。
96,臺北市,北投區,121.51278043900489,25.11440136448418,石牌國小地下停車場,致遠2路1段80號地下,1,"計時：小型車30元/時(全程以半小時計費)。月租：全日月票4,600元/月；里民優惠3,680元/月(優惠里：北投區榮光里、福興里、吉慶里、永明里、振華里、尊賢里)；所在地里3,220元/月(所在地里：北投區吉利里(含榮光里24鄰)；日間優惠月票(07-19時)3,000元/月、夜間優惠月票(19-翌日07時)2,000元/月。機車免費。",2542-0001,472.0,179.0,48.0,,00:00:00~23:59:59,2019-07-05 00:38:00,立體式小型車460格(含身心障礙停車位10格)。立體式機車176格(含身心障礙停車位4格)。
97,臺北市,士林區,121.50828361016654,25.080663191894626,海光公園地下停車場,葫蘆街83號地下,1,"每小時20元，(全程以半小時計費)。月租：全日優惠4,200元，所在里(富光里)優惠2,940元，半徑300公尺鄰近里(福順里、葫蘆里、大同區老師里)優惠3,360元，夜間(19-08)優惠1,500元。本場提供計程車免",2813-7344,105.0,,,,00:00:00~23:59:59,2019-07-05 00:38:00,立體式小型車105格(含身心障礙停車位2格)。
98,臺北市,內湖區,121.57794702948463,25.080525802445642,港富立體停車場,內湖路1段737巷50弄32號,1,"計時：30元/時，全程以半小時計費。月租：全日月票3,600元/月，全日里民(港都里、港墘里、港華里、瑞陽里、湖濱里)月票2,880/月所在地里民(港富里)月票2,520/。夜間月票2,200(週一至週五20-8)；週六、日與行政機關放假之紀念日、民俗日全日可停放",2754-6661-18,239.0,,,,00:00:00~23:59:59,2019-07-05 00:38:00,機械式小型車245格(含身心障礙停車位5格)。
99,臺北市,中山區,121.5302556567406,25.049572512054272,長安國小地下停車場,松江路90巷14號地下,1,"計時：30元/時，全程半小時計費。月租：全日4,800元，日間3,500元(7-19)，夜間2,000元(19-8)。機車計次：20元/次。機車月租300元/月。本場提供計程車免費一小時服務。",2523-9016,284.0,,,,00:00:00~23:59:59,2019-07-05 00:38:00,立體式小型車284格(含身心障礙停車位6格)。立體式機車119格(含身心障礙停車位2格)。
100,臺北市,北投區,121.50194293923307,25.13654397649923,七星公園地下停車場,光明路225號,1,"計時：小型車30元/時(全程半小時計價)。月票：全日月票3000元；日間2000元(07-20)；夜間1200元(周一至周五19-08及周六、日與行政機關放假之紀念日、民俗日全日使用)。機車：計次：每次20元隔日另計,月租300元",2655-1516,334.0,55.0,,,00:00:00~23:59:59,2019-07-05 00:38:00,立體式小型車328格(含身心障礙停車位7格)。立體式機車52格(含身心障礙停車位3格)。
101,臺北市,文山區,121.58393051851131,25.000697300441534,捷運木柵機廠停車場,新光路2段19號,1,每次120元，隔夜車另計天數(以凌晨零時為基準)。,8661-7442,692.0,,,,00:00:00~00:02:00,2019-07-05 00:38:00,為立體停車場，計有681個小型車停車位。
102,臺北市,士林區,121.52199448600298,25.089784656848654,承德公園地下停車場,基河路150號地下,1,"周一至周四(0-9)計時10元，(9-22)計時40元，(22-24)計時10元，周五至周日及行政機關放假之紀念日與民俗日(0-8)計時10元，(8-12)計時30元，(12-24)計時50元，全程以半小時計費。月票：全日月票4,800元，所在里3,360元，半徑300公尺鄰近里3,840元，日間月票2,000元(7-19)。機車計次20元，跨日重新計算，全日月票300元。",2883-7104,176.0,62.0,,,00:00:00~23:59:59,2019-07-05 00:38:00,立體式小型車176格(含身心障礙停車位6格)。立體式機車62格(含身心障礙停車位2格)。
103,臺北市,南港區,121.61109710472122,25.057128475344033,南港國小地下停車場,興東街59號地下1樓,1,"周一至周五(8-20)計時30元，(20-8)計時20元，周六、日與行政機關放假之紀念日與民俗日計時20元，全程以半小時計費。月票：全日月票4,800元，里民月票3,000元(所在里及半徑300公尺鄰近里)，日間月票3,500元(8-20)，夜間月票1,000元(19-8及週、六日與行政機關放假之紀念日、民俗日使用)。機車計次20元，跨日重新計算，全日月票300元。",2759-0666,311.0,71.0,,,00:00:00~23:59:59,2019-07-05 00:38:00,立體式小型車311格(含身心障礙停車位8格)。立體式機車71格(含身心障礙停車位6格)。
105,臺北市,南港區,121.5928216996945,25.053558667857022,玉成國小地下停車場,昆陽街23號B1、B2,1,"計時20元(18-08時)，30元(08-18時)全程以半小時計費。月租：全日優惠2,500元，所在里優惠1,750元，半徑300公尺鄰近里優惠2,000元。機車計次20元，全日月票300元。本場提供計程車免費一小時服務。",27829226,297.0,28.0,,,00:00:00~23:59:59,2019-07-05 00:38:00,立體式小型車297格(含身心障礙停車位8格)。立體式機車28格(含身心障礙停車位3格)。
106,臺北市,大同區,121.51626992811629,25.05655895551969,蓬萊國小地下停車場,寧夏路35號B1、B2,1,"計時：30元/時，以半小時計費，機車計次20元，隔日另計。月租：全日5,760元，里民4,608元，所在里4,032，機車月租300元。本場提供計程車免費一小時服務。",2556-7024,292.0,147.0,,,00:00:00~23:59:59,2019-07-05 00:38:00,立體式小型車286格(含身心障礙停車位6格)。立體式機車144格(含身心障礙停車位3格)。
107,臺北市,信義區,121.56322746691272,25.031370224629487,信義國小地下停車場,信義區松勤街60號地下,1,"計時40元，全程以半小時計費。月票：全日月票5,000元，所在里3,500元，半徑300公尺鄰近里4,000元，日間月票2,400元(7-19)，夜間月票2,400元(19-8)。機車計次20元，跨日重新計算，全日月票300元。",2758-8124,235.0,51.0,,,00:00:00~23:59:59,2019-07-05 00:38:00,立體式小型車231格(含身心障礙停車位5格)。立體式機車50格(含身心障礙停車位1格)。
109,臺北市,內湖區,121.59041819940664,25.06771114452631,湖興立體停車場,成功路2段322號,1,"計時：30元/時(07-22)，10元/時(22-07)，全程以半小時計費。月租：3,600元/月，全日里民優惠(湖元里、石潭里、寶湖里)2,880元/月，全日所在地里民優惠(湖興里)2,520元/月，夜間(19-08)1,500元/月。",2455-1299,256.0,,,,00:00:00~23:59:59,2019-07-05 00:38:00,機械式小型車257格(含身心障礙停車位5格)。
110,臺北市,內湖區,121.57018175286062,25.082431405000502,西湖公園地下停車場,內湖路1段387巷38號地下,1,"計時20元/時，全程以半小時計費。月租：2,800元/月。",8919-3669,171.0,,,,00:00:00~23:59:59,2019-07-05 00:38:00,地下停車場，計有175個小型車格
111,臺北市,士林區,121.52895669767273,25.109768695445094,蘭雅公園地下停車場,德行東路129巷31號地下,1,"週一至週五每小時30元，周六、日與行政機關放假之紀念日民俗日每小時40元(全程以半小時計費)。月租：全日優惠5,200元，所在里(蘭雅里)優惠，3,640元。半徑300公尺鄰近里(天祿里、三玉里、聖",2831-8004,155.0,,,,00:00:00~23:59:59,2019-07-05 00:38:00,立體式小型車155格(含身心障礙停車位4格)。
112,臺北市,中山區,121.52147281013373,25.054858577227,臺北市中山運動中心停車場,中山北路2段44巷2號B3,1,"1.一班自用汽車採計時收費，每小時40元，全程以半小時計；機車每天每次10元。2.公務車及公務機車免費。3.長期停車月票:(1)日間7-19時:周一至周日每月6,600元,周一至周舞步寒假日每月5,500元。(2)夜間19時-翌日7時每月5,500元",2581-1060,57.0,82.0,,,00:00:00~23:59:59,2019-07-05 00:38:00,計有57個小型車格、81個機車格
113,臺北市,文山區,121.55130765011579,25.000192250984977,興隆公園地下停車場,仙岩路128號地下,1,"計時：20元/時全程以半小時計費。月租：全日4,800元，所在里里民優惠2,700元，一般民眾及一般里民全日均以3,000元優惠；機車計次20元，機車月票300元。本場提供計程車免費一小時服務。",2933-5014,259.0,58.0,8.0,,00:00:00~23:59:59,2019-07-05 00:38:00,立體式小型車259格(含身心障礙停車位6格)。立體式機車58格(含身心障礙停車位5格)。
114,臺北市,文山區,121.5402728834412,24.988690544120846,景美國小地下停車場,景文街142巷2號地下。,1,"計時：20元/時，全程以半小時計費。月租：全日4,800元，日間2,000元(7-19)，夜間月票1,200元(19-8)，所在里、里民全日月票3,000元，機車計次20元，機車月票300元。本場提供計程車免費一小時服務。",2930-1538,253.0,92.0,10.0,,00:00:00~23:59:59,2019-07-05 00:38:00,立體式小型車253格(含身心障礙停車位6格)。立體式機車92格(含身心障礙停車位3格)。
115,臺北市,文山區,121.57852268708996,24.997713251166296,木柵動物園停車場,河川高灘地,1,計次：週一至週五50元/次、計時：假日(含週六及週日、行政機關放假之紀念日及民俗節日)60元/時。月租：優惠月票500元/月(不含假日)。,8661-6795,964.0,,,,00:00:00~23:59:59,2019-07-05 00:38:00,堤外平面式小型車964格(含身心障礙停車位19格)。
116,臺北市,大安區,121.53403406072724,25.01914696088794,台灣大學新生南路地下停車場,臺北市大安區羅斯福路4段1號,1,詳現場公告,3366-3819,353.0,,,,00:00:00~23:59:59,2019-07-05 00:38:00,地下2層，24小時全自動電腦計時收費。
119,臺北市,大同區,121.51664384102163,25.074128258627052,大龍國小地下停車場,哈密街47號地下,1,"小型車計時：周一至周五30元/時，週六、日語行政機關放假之紀念日與民俗日40元/時，全程以半小時計費，小型車月票全日4,800元/月，里民優惠(大同區重慶里、至聖里)3,500元/月，所在里3,000元/月,機車計次20元,全日月票300元/月",2759-0666,265.0,106.0,,,00:00:00~23:59:59,2019-07-05 00:38:00,立體式小型車265格(含身心障礙停車位6格)。立體式機車106格(含身心障礙停車位3格)。
120,臺北市,南港區,121.61541480357911,25.05791585132822,世貿公園地下停車場,經貿二路88巷1號地下1至3層。,1,"計時：小型車20元/時，全程以半小時計費。月租：小型車全日月票4,800元/月，日間3,000元/月(08-20)，夜間1,500元/月(19-08及週六、日與行政機關放假之紀念日、民俗日)，所在里(三重里)里民優惠全日3,360元/月，半徑300公尺(南港里、中南里、新富里)里民優惠全日3,840元/月；機車月票300元/月。計次：機車20元/次。",2788-6271,408.0,198.0,,,00:00:00~23:59:59,2019-07-05 00:38:00,立體式小型車400格(含身心障礙停車位8格)。立體式機車194格(含身心障礙停車位4格)。
124,臺北市,士林區,121.50256974612725,25.090978695449127,社子國小地下停車場,延平北路6段308號地下,1,"每小時20元(全程以半小時計費)。月租全日優惠3,500元，所在里(永倫里)優惠3,000元，日間(08-18)2,000元，夜間(19-08)1,800元。機車計次20元(隔日另計)，月票300元。",2542-0001,476.0,216.0,12.0,,00:00:00~23:59:59,2019-07-05 00:38:00,立體式小型車464格(含身心障礙停車位10格)。立體式機車213格(含身心障礙停車位5格)。
126,臺北市,松山區,121.55114220923744,25.04912480123153,嘟嘟房臺北田徑場站停車場,敦化北路3號1F及B1,1,"計時：汽車40元/時(08-22)，當日最高上限230元，30元/時(20-08)，全程以半小時計費。月租：汽車全日4,500元/月，日間3,500元/月，夜間3,000元/月，機車600元/月。計次：機車最高10/次(隔日另計)。",2655-0818,289.0,634.0,,,00:00:00~23:59:59,2019-07-05 00:38:00,計有287個小型車格，661個機車格
127,臺北市,中正區,121.5193701013937,25.03835908205221,臺北市中正運動中心停車場,信義路1段1號B3,1,"30元/時(06-22)，全程以半小時計。月租：4,000元/月。大型重型機車比照小型車收費。",3322-5016-119,100.0,,,,00:00:00~23:59:00,2019-07-05 00:38:00,計有101個小型車格
128,臺北市,文山區,121.57658550512178,24.98942386255657,萬興國小地下停車場,秀明路2段116號地下,1,"計時：20元/時，全程以半小時收費。月租：3,500元，所在里2,500元；一般里民3,000元；日間1,800元(8-20)；夜間月票2,000元(20-08及假日)，夜間月票(二)1,000元(15-01及假日)。 機車計次20元，機車月票3000",2759-0666,234.0,188.0,,,00:00:00~23:59:00,2019-07-05 00:38:00,立體式小型車234格(含身心障礙停車位5格)。立體式機車188格(含身心障礙停車位4格)。
129,臺北市,內湖區,121.56375884184651,25.08472395747143,西康地下停車場,內湖路1段203巷25號地下,1,"計時：20元/時，全程以半小時計費。月租：全日月票4,800元/月，全日里民優惠(內湖區西康里、西安里、西湖里、中山區金泰里)、3,000元/月。",2568-3383,88.0,,,,00:00:00~23:59:00,2019-07-05 00:38:00,為地下停車場，計有86個小型車格
131,臺北市,北投區,121.47337421787479,25.131102379084986,捷運忠義站轉乘停車場,中央北路4段301號,1,"計時：20元/時(06~24)、10元(00~06)/時；假日30元/時(11-22)、20元/時(6-11、22-24)、10元/時(00-06)。全程以半小時計費。全時月票：2,500元/月。",2550-5600-3218,44.0,,,,00:00:00~23:59:59,2019-07-05 00:38:00,平面停車場，計有44個小型車格
132,臺北市,北投區,121.50144917258356,25.136874718722506,捷運新北投站轉乘停車場,大業路700號,1,"計時：平日20元/時(06-24)、10元/時(00-06)；假日30元/時(11-22)、20元/時(6-11、22-24)、10元/時(00-06)。全程以半小時計費。全時月租：3,000元/月，限時月租：1,500元/月(周一~週五06-22時)。",2550-5600-3218,24.0,,,,00:00:00~23:59:59,2019-07-05 00:38:00,平面停車場，計有19個小型車格
133,臺北市,北投區,121.50644050216326,25.12082925270998,捷運唭哩岸站轉乘停車場,東華街2段301號,1,"計時：30元/時(06-24)，10元/時(00-06)。全程以半小時計費。全日月租：3,500元/月。",2550-5600-3218,37.0,,,,00:00:00~23:59:59,2019-07-05 00:38:00,平面停車場，計有37個小型車格
134,臺北市,北投區,121.5145333913748,25.11600805492046,捷運石牌站轉乘停車場,石牌路1段200號,1,"計時：平日30元/時(06-24)，10元/時(00-06)，假日40元/時(06-24)，10元/時(00-06)。全程以半小時計費。全日月租：3,500元/月。",2550-5600-3218,64.0,,,,00:00:00~23:59:59,2019-07-05 00:38:00,平面停車場，計有64個小型車格
136,臺北市,南港區,121.52652422058635,25.092325569092136,捷運士林站轉乘停車場1,福德路1號,1,小型車全日月票：5000/月。機車計次：20/次(隔日隔次另計，以凌晨2時為基準)，機車全日月票：300元/月。,2550-5600#3218,139.0,151.0,0.0,0.0,00:00:00~23:59:59,2019-12-20 00:00:00,平面式小型車138格(含身心障礙停車位3格)
138,臺北市,士林區,121.5266550565599,25.09263602986744,捷運士林站南,臺北市士林區福德路1號,1,以停車場公告為準。,2181-2345,72.0,,,,00:00:00~23:59:59,2019-07-05 00:38:00,"相關停車費率及停車時間以各轉乘停車場公告為準。
計時汽車轉乘停車場，停車未滿半小時以半小時計。
使用悠遊卡搭乘捷運出站後1個小時內取車離場可享優惠折扣（限當日當次）：
(1) 計時汽車轉乘停車場：每小時優惠5元，上限為前次搭乘捷運扣款金額。
(2) 計次機車轉乘停車場：每次優惠3元。"
139,臺北市,士林區,121.52585308120388,25.09351098174196,捷運士林站西,臺北市士林區福德路1號,1,以停車場公告為準。,2181-2345,58.0,,,,00:00:00~23:59:59,2019-07-05 00:38:00,"相關停車費率及停車時間以各轉乘停車場公告為準。
計時汽車轉乘停車場，停車未滿半小時以半小時計。
使用悠遊卡搭乘捷運出站後1個小時內取車離場可享優惠折扣（限當日當次）：
(1) 計時汽車轉乘停車場：每小時優惠5元，上限為前次搭乘捷運扣款金額。
(2) 計次機車轉乘停車場：每次優惠3元。"
140,臺北市,士林區,121.5229829857166,25.10119295956736,捷運芝山站南,臺北市士林區福國路70號,1,以停車場公告為準。,2181-2345,134.0,,,,00:00:00~23:59:59,2019-07-05 00:38:00,相關停車費率及停車時間以各轉乘停車場公告為準。計時汽車轉乘停車場，停車未滿半小時以半小時計。使用悠遊卡搭乘捷運出站後1個小時內取車離場可享優惠折扣（限當日當次）：(1) 計時汽車轉乘停車場：每小時優惠5元，上限為前次搭乘捷運扣款金額。(2) 計次機車轉乘停車場：每次優惠3元。
141,臺北市,士林區,121.52231105736205,25.10462299401413,捷運芝山站北,臺北市士林區福國路70號,1,以停車場公告為準。,2181-2345,28.0,,,,00:00:00~23:59:59,2019-07-05 00:38:00,"相關停車費率及停車時間以各轉乘停車場公告為準。
計時汽車轉乘停車場，停車未滿半小時以半小時計。
使用悠遊卡搭乘捷運出站後1個小時內取車離場可享優惠折扣（限當日當次）：
(1) 計時汽車轉乘停車場：每小時優惠5元，上限為前次搭乘捷運扣款金額。
(2) 計次機車轉乘停車場：每次優惠3元。"
149,臺北市,中山區,121.55458775357809,25.084490745031903,捷運劍南路站轉乘停車場,北安路798號1樓、B1-B2,1,"汽車臨停：平日20元/時(06-22時)、10元/時(22-06時)，平日收費上限80元。假日：30元/時(06-11時)、40元/時(11-22時)、10元/時(22-06時)，假日收費上限150元。全程以半小時計費。機車計次20元/次(隔日另計，凌晨2時為基準)。汽車全日月票2,500元/月；機車全日月票300元/月。",2246-1708-12,288.0,54.0,,,00:00:00~23:59:59,2019-07-05 00:38:00,立體式小型車282格(含身心障礙停車位6格)。立體式機車52格(含身心障礙停車位2格)。
161,臺北市,中正區,121.52226142204016,25.03903761109645,臺北市青少年發展處停車場,仁愛路1段17號地下3-4樓,1,"計時：30元/時，全程以半小時計費。月租：全日月租4,100元/月；日間(07~19)3,300元/月，提前或延後出場，以每小時15元計費，夜間(19~07)2,500元/月，提前或延後出場，以每小時15元計費。",2351-4078,142.0,,,,00:00:00~23:59:59,2019-07-05 00:38:00,為立體停車場，計有277個小型車格
165,臺北市,南港區,121.58701123478544,25.04212473877853,玉成公園地下停車場,成福路118號地下1、2層,1,"計時20元(全程以半小時計費)，月租：全日優惠4,800元，所在里優惠3,000元，300公尺鄰近里優惠3,200元；夜間2,400元(週一至週五19-08及假日)。機車計次20元，全日月票300元。本場提供計程車免費一小時服務。",2651-7459,403.0,,,,00:00:00~23:59:59,2019-07-05 00:38:00,立體式小型車412格(含身心障礙停車位9格)。立體式機車84格(含身心障礙停車位3格)。
173,臺北市,內湖區,121.58445224884585,25.078305985535785,文德站轉乘停車場,文德路216號,1,"計時：30元/時(06-22)，10元/時(22-06)，全程以半小時計費。月租：全時月票3,500元/月，限時月票1,800元/月。",25505600-3218,306.0,,,,00:00:00~23:59:59,2019-07-05 00:38:00,為塔台停車場，計有306個小型車
174,臺北市,南港區,121.61851613380405,25.06101165858523,內湖機廠轉乘停車場,經貿一路265號3-5F,1,"計次：小型車100元/次，機車20元/次，隔日隔次另計，以凌晨2時為基準。月租：小型車全日1,800元/月，機車全日300元/月。",2246-1708-12,314.0,169.0,,,00:00:00~23:59:59,2019-07-05 00:38:00,為立體停車場，計有302格小型車，160個機車
176,臺北市,士林區,121.52954225902548,25.11857991529305,天母西側停車場,天母西路1號地下1~5樓,1,平日40元/時，假日60元/時，停車逾1小時以上者，未滿半小時以半小時計費。全日5500元/月，日間2500元(07~19)/月，夜間2700元(18~09)/月，機車20元/時，全日最高100元(身心障礙比照收費),2876-5986,222.0,68.0,,,00:00:00~23:59:00,2019-07-05 00:38:00,為立體停車場，計有226 個小車格，68個機車格
177,臺北市,信義區,121.56791717170651,25.039730231010953,BELLAVITA寶麗廣場停車場,松仁路28號地下1、2、4、5樓,1,小型車120元/時，機車60元/時，停車未滿1小時以1小時計，逾1小時以上者，未滿半小時以半小時計。,8729-2828,164.0,243.0,,,10:30:00~23:59:00,2019-07-05 00:38:00,為立體地下停車場，計有168個小型車格，243個機車格。
181,臺北市,松山區,121.55125713723065,25.062860545005172,臺北國際航空站第1號計時收費停車場,敦化北路340號之9,1,"40元/時(08-21)，10元/時(21-08)，30分鐘內出場者免費，停車逾1小時以上者，未滿半小時以半小時計費。月租：非駐站4,000元/月，駐站2,400元/月",2547-2778,115.0,,,,00:00:00~23:59:00,2019-07-05 00:38:00,
182,臺北市,松山區,121.55241622287252,25.063024068594512,臺北國際航空站第2號計時收費停車場,敦化北路340號之9,1,"計時：汽車40元(08-21)/時，10元(21-翌日08)/時，進場未滿30分鐘免費，停車未滿1小時以1小時計，逾1小時以上，未滿半小時以半小時計。月租：汽車全日4,000元/月(附近里民)，機車300元/月。計次：機車20元/次(隔日另計)，進場未滿30分鐘免費。",8770-3426,215.0,307.0,,,00:00:00~23:59:00,2019-07-05 00:38:00,
183,臺北市,松山區,121.55344836823662,25.06305859427453,臺北國際航空站第3號計時收費停車場,敦化北路340號之9,1,"計時：40元/時(08-21)，10元/時(21-08)，30分鐘內出場者免費，停車逾1小時以上者，未滿半小時以半小時計費。月租：非駐站4,000元/月，駐站2,400元/月。",2547-2778,511.0,,,,00:00:00~23:59:00,2019-07-05 00:38:00,
184,臺北市,士林區,121.51615221049107,25.096026674780266,國立台灣科學教育館地下停車場,士商路189號B2、B3,1,"計時：汽車60元/時，停車未滿1小時以1小時計，逾1小時以上者，未滿半小時以半小時計費。月租：汽車5,200/月。計次：機車20元/次(隔日另計)。",2834-4829,485.0,204.0,,,08:00:00~19:00:00,2019-07-05 00:38:00,為立體停車場，計有424個小型車格，1300個機車格
187,臺北市,信義區,121.57229453043207,25.03958162641151,松山工農地下停車場,忠孝東路5段236巷15號地下,1,"周一至周五計時30元，假日計時40元(全程以半小時計費)，月票：全日5,200元，停車場所在里(廣居里及安康里6鄰)里民全日優惠3,640元，停車場出入口周圍服務半徑300公尺內(富台里、興雅里、安康",2759-0666,239.0,189.0,,,00:00:00~23:59:59,2019-07-05 00:38:00,立體式小型車239格(含身心障礙停車位5格)。立體式機車189格(含身心障礙停車位4格)。
188,臺北市,信義區,121.57831801984976,25.04849732029476,松山車站地下停車場,松山路11號地下,1,"周一至周四計時40元，周五至周日及行政機關放假之紀念日及民俗節日計時50元，全程以半小時計費。月票：全日月票5,500元，所在里3,850元，半徑300公尺鄰近里4,400元，日間月票3,600元(7-19)。",2759-0666,431.0,,,,00:00:00~23:59:59,2019-07-05 00:38:00,立體式小型車431格(含身心障礙停車位16格)。
193,臺北市,松山區,121.57819919043165,25.050516539670006,松山國小地下停車場,八德路四段746號,1,"周一至周四計時40元，周五至周日及政府行政機關放假之紀念日及民俗節日計時50元，全程以半小時計費。月票：全日月票4,800元，所在里3,360元，半徑300公尺鄰近里3,840元，夜間月票2,000元(19-8)。機車計次20元，跨日重新計算，全日月票300元。",,286.0,135.0,,,00:00:00~23:59:59,2019-07-05 00:38:00,立體式小型車286格(含身心障礙停車位6格)。立體式機車135格(含身心障礙停車位4格)。
194,臺北市,信義區,121.56192894846235,25.04465893104113,臺北文創停車場,光復南路89巷88號,1,"汽車計時：80元/時，機車計時：10元/時，計次：1日30元/次。汽車月租：全天8,000元/月，機車月租：全天800元/月。",2523-5000-135,571.0,1258.0,,,00:00:00~23:59:59,2019-07-05 00:38:00,
195,臺北市,萬華區,121.49454510415218,25.033639642704077,新糖廍公園地下停車場,大理街160巷2號地下,1,"計時：20元/時(全程以半小時計費)。月租：4,800元/月，里民(糖廍、青山、柳鄉、華江、綠堤、和平里)優惠3,000元。",2252-5022,72.0,,,,00:00:00~23:59:59,2019-07-05 00:38:00,為地下停車場，計有70個小型車格
196,臺北市,內湖區,121.59235256000294,25.068279695925273,石潭平面停車場,民權東路6段與成功路2段旁,1,"計時：30元/時，全程以半小時計費。月租：全日7,200元，全日里民優惠(湖興里、石潭里)5,760元，所在里里民優惠(寶湖里)月票5,040元。",2568-3383,70.0,,,,00:00:00~23:59:59,2019-07-05 00:38:00,一般平面式小型車70格(含身心障礙停車位2格)。
197,臺北市,內湖區,121.612163565431,25.069791322356142,康東平面停車場,康寧路3段189巷口,1,汽車計時：30元/時。全程以半小時計費。月租：全天：7200元/月。全日里民優惠月票：5760元/月(優惠里：明湖里、葫洲里、康寧里、南湖里、五分里)；所在里全日里民優惠月票：5040元/月(優惠里：安湖里)。,2568-3383,39.0,,,,00:00:00~23:59:59,2019-07-05 00:38:00,共有39個小型車格
198,臺北市,內湖區,121.60557887349032,25.072510740045924,康寧平面停車場,民權東路6段與康寧路2段圓環旁,1,汽車計時：20元/時。全程以半小時計費。月租：全天：4800元/月。全日里民優惠月票：3840元/月(優惠里：金湖里)；所在里全日里民優惠月票：3360元/月(優惠里：葫洲里),2568-3383,21.0,,,,00:00:00~23:59:59,2019-07-05 00:38:00,為平面停車場，計有21個小型車停車位。
199,臺北市,中正區,121.51662243272757,25.04785393619221,歐特儀股份有限公司台北車站西區地下停車場,北平西路3號B1(西側),1,計時:平日60元/時(6-22)，夜間優惠30元/時(22-6)，假日:70元/時，停車未滿1小時以1小時計，逾1小時以上，未滿半小以半小時計，當日每次優惠最高600元(隔日另計)。月租:7000元/月,2375-2177,185.0,,,,00:00:00~23:59:59,2019-07-05 00:38:00,立體式小型車179格(含身心障礙停車位4格)
201,臺北市,中山區,121.52244963991579,25.06898496910073,花博公園圓山停車場,玉門街1號,1,"汽車計時：30元/時，全程以半小時計，停車15分鐘內離場免費。月租：全日6,000元。",2705-7716,107.0,,,,00:00:00~23:59:59,2019-07-05 00:38:00,計有105格小型車格
202,臺北市,文山區,121.57326616217071,24.99859794896074,捷運木柵站轉乘停車場,木柵路4段135號,1,"汽車:平日20元/時(06-22),10元/時(22-06),全程以半小時計費。汽車月租：全日2,500元/月；日間限時月票(平日週一~五06~21時)1,500元/月；夜間限時月票(19~隔日08時)1,200元/月。機車20元/次,隔日另計(凌晨2時為基準,跨日另計費)。機車月租:300元/月",2239-9509,149.0,168.0,,,00:00:00~23:59:59,2019-07-05 00:38:00,小型車149格。
203,臺北市,大安區,121.54268516237669,25.02080009761954,臺灣大學辛亥臨時停車場,羅斯福路4段1號地下1、2層,1,計時：汽車40元/時，停車未滿1小時以1小時計，逾1小時以上者，未滿半小時以半小時計。計次：機車20元/次(隔日另計)。,3366-3366,435.0,1513.0,,,00:00:00~23:59:59,2019-07-05 00:38:00,立體式小型車425格(含身心障礙停車位10格)。立體式機車1484格(含身心障礙停車位29格)。
204,臺北市,內湖區,121.57416789733897,25.062997707154647,台北花卉產銷股份有限公司A館,台北市內湖區新湖三路28號,1,平日：全日30元/時；農曆春節前20日至農曆春節前8日及農曆節後10日，全日40元/時；農曆春節前7日至農曆春節前1日，全日60元/時，全程以半小時計費,2790-9729,461.0,,,,00:00:00~23:59:59,2019-07-05 00:38:00,計有471個小型車(含身心障礙停車位10格)
205,臺北市,內湖區,121.57510061065923,25.063038154326176,台北花卉產銷股份有限公司B館,台北市內湖區新湖三路36號,1,平日：全日30元/時；農曆春節前20日至農曆春節前8日及農曆節後10日，全日40元/時；農曆春節前7日至農曆春節前1日，全日60元/時，全程以半小時計費,2790-9729,73.0,,,,08:00:00~12:00:00,2019-07-05 00:38:00,計有75個小型車(含身心障礙停車位2格)
206,臺北市,中山區,121.53638574355092,25.062826173794704,第一殯儀館停車場,民權東路2段145號,1,"臨停：50元/時，全程以半小時計費，15分鐘內離場免費。里民夜間(19-07)月票2,000元/月，夜間(19-07)月票2,500元/月。",2705-7716-204,133.0,,,,00:00:00~23:59:59,2019-07-05 00:38:00,計有130個小型車停車位。
207,臺北市,士林區,121.51859904661798,25.09605903808371,臺北市立天文科學教育館地下及戶外平面停車場,基河路363號地上1樓及地下1.2樓,1,"一.1樓平面停車場(小型車49格僅供月租)：一般里民以每3個月4500元繳納(每月1500元計)。停車場進出口(中心)服務半徑300公尺範圍內里民予以8折優惠停車費率，設籍福佳里里民每月以1000元計收停車費用。二.B1&B2停車場(小型車234格、機車423格)：小型車30/時，全程以半小時計費；機車：20/次(隔日另計)。其中B2樓層小型車30格，提供里民全日月租，一般里民4200元/月,設籍福佳里里民2700元/月。",2831-4551,294.0,399.0,,,08:00:00~18:00:00,2019-07-05 00:38:00,計有294個小型車停車位，399個機車停車位。
208,臺北市,文山區,121.57557483735924,25.001013256836725,博嘉運動公園停車場,木柵路4段159巷16號B2,1,20元/時，全程以半小時計費，1500元/月。,2239-5495,35.0,,,,05:30:00~21:00:00,2019-07-05 00:38:00,計有36格小型車格
210,臺北市,中正區,121.51746351926298,25.04690378185911,Ｋ區地下街停車場,忠孝西路1段47號地下2樓,1,"計時：50元/時，全程以半小時計費。月租：全天6,000元/月。",2375-7705,188.0,,,,00:00:00~23:59:59,2019-07-05 00:38:00,計有188個小型車格
212,臺北市,大安區,121.55309980486568,25.014105667467643,辛亥路高架橋下平面停車場,辛亥段5小段123、123-2地號；辛亥路3段330號對面高架橋下空地。,1,計時：40元/時，全程以半小時計費。,2226-1739,164.0,,,,00:00:00~23:59:59,2019-07-05 00:38:00,為橋下停車場，計有90個小型車停車格
213,臺北市,文山區,121.55351700298115,25.01390992079295,第二殯儀館停車場,辛亥路3段330號,1,計時：每小時50元，全程以半小時計費。,2705-7716,286.0,0.0,0.0,0.0,00:00:00~23:59:59,2019-12-20 00:00:00,"建物附設 一般平面式小型車286格(含身心障礙停車位5格,孕婦,育有六歲以下兒童停車位5格)"
214,臺北市,中正區,121.53081087343605,25.045292756408788,應安168台北資訊園區停車場,市民大道三段2號B1-B6,1,"計時：汽車60元/時，全程以半小時計費。月租：汽車7,000元/月(梅花里7折優惠；民輝里、正守里、興亞里、朱園里8折優惠)；機車全日400元/月，計次：機車20元/次(隔日另計)。",2754-6661#18,464.0,1181.0,,,00:00:00~23:59:59,2019-07-05 00:38:00,立體式小型車454格(含身心障礙停車位10格)。立體式機車1151格(含身心障礙停車位24格)。
215,臺北市,萬華區,121.50342262327706,25.03107392787581,莒光立體停車場,莒光路137號,1,"計時：20元/時，全程以半小時計費。月租：全日月票4,000元/月。里民優惠3,200元/時(雙園、新安、新忠、新和、富福及中正區廈安、忠勤等里)；2,800元/時(頂碩里)",2759-0666,123.0,,,,00:00:00~23:59:00,2019-07-05 00:38:00,機械式小型車123格(含身心障礙停車位3格)。
217,臺北市,中正區,121.51841363762608,25.03641641539681,兩廳院地下停車場,中山南路21-1號,1,50元/時，停車逾1小時以上者，未滿半小時以半小時計費。8000元/月。,02-2705-7716,681.0,,,,00:00:00~23:59:59,2019-07-05 00:38:00,為地下停車場，計有695個小型車停車位(含身心障礙停車位14格)。
219,臺北市,中山區,121.52227765181276,25.054815935400022,台壽金融總部大樓停車場,中山北路二段42號B3-B4,1,"臨停：40元/時，全程以半小時計費。月租：全日10,000元。",8792-6868,147.0,,,,00:00:00~23:59:59,2019-07-05 00:38:00,計有147個小型車格
220,臺北市,南港區,121.59137845407116,25.046004274113933,南港公園平面停車場,東新街170號(南港公園大門旁),1,"計時20元。全日月票4,800元，全日里民優惠月票3,840元，全日在地里民優惠月票3,360元，身心障礙者憑證購買月票半價。",02-2944-1489,82.0,,,,00:00:00~23:59:59,2019-07-05 00:38:00,為平面停車場，計有84個小型車停車位。
222,臺北市,南港區,121.61359387471344,25.047607740417966,南港59號公園臨時平面停車場,研究院路2段12巷57弄2號旁,1,"計時20元。全日月票4,800元，全日里民優惠月票3,840元，全日在地里民優惠月票3,360元，身心障礙者憑證購買月票半價。",02-2944-1489,21.0,,,,00:00:00~23:59:59,2019-07-05 00:38:00,為平面停車場，計有22個小型車格
223,臺北市,士林區,121.5332865532615,25.120293276257748,東和平面停車場,天母東路69巷30號,1,"(100.7.11委外)計時30元。全日月票7,200元，全日里民優惠月票5,760元，所在里(天和里)全日里民優惠月票5,040元，身心障礙者購買月票半價。",,39.0,,,,00:00:00~23:59:59,2019-07-05 00:38:00,為平面停車場，計有41個小型車停車位。
224,臺北市,北投區,121.50463459619844,25.140755599185066,復興平面停車場,進賢路、復興路口,1,"計時20元。全日月票4,800元，全日里民優惠月票3,840元，所在里(開明里)全日里民優惠月票3,360元。",02-2944-1489,67.0,,,,00:00:00~23:59:59,2019-07-05 00:38:00,為平面停車場，計有69個小型停車位
227,臺北市,文山區,121.58243893854755,24.98613063927773,政大三街臨時平面停車場,臺北市文山區政大三街53號旁,1,計時20元，全程以半小時計費。月租：全日里民優惠(政大里及指南里)900元/月。計次：每日每次收費最高上限為30元(每日零時重新計算),0968-198-685,49.0,,,,00:00:00~23:59:59,2019-07-05 00:38:00,為平面停車場，計有50個小型車格
228,臺北市,文山區,121.56629331932535,24.98840475000874,木柵路三段平面停車場,木柵路三段47號對面,1,計時20元/時,0968-198-685,47.0,,,,00:00:00~23:59:59,2019-07-05 00:38:00,計有48個小型車格
229,臺北市,大安區,121.5520442772188,25.021463781726602,嘉興公園地下停車場,嘉興街373號,1,"小型車計時：30元/時，全程以半小時計費。小型車月租：全日4,800元/月。機車計次：20元/次。機車月租：300元/月。本場提供計程車免費一小時服務。",8732-1451,195.0,64.0,,,00:00:00~23:59:59,2019-07-05 00:38:00,立體式小型車195格(含身心障礙停車位4格)。立體式機車64格(含身心障礙停車位2格)。
232,臺北市,中山區,121.53670147796801,25.046893124693913,建國北路高架橋下O區,建國北路橋下(八德迴轉道-長安東路),1,07:30-21:30計時30元/時。機車不收費。,2508-1533,143.0,,,,00:00:00~23:59:59,2019-07-05 00:38:00,為橋下停車場，計有143個小型車停車格，42個機車格。
233,臺北市,中山區,121.53675434451107,25.049224974041877,建國北路高架橋下A區,建國北路橋下(長安東路-朱崙迴轉道),1,07:30-21:30計時30元/時。,2508-1533,171.0,,,,00:00:00~23:59:59,2019-07-05 00:38:00,為橋下停車場，計有171個小型車停車格。
234,臺北市,中山區,121.53676529520685,25.04989400448792,建國北路高架橋下B區,建國北路橋下(朱崙迴轉道-南京東路),1,07:30-21:30計時30元/時。,2508-1533,377.0,,,,00:00:00~23:59:59,2019-07-05 00:38:00,為橋下停車場，計有377個小型車停車格。
235,臺北市,中山區,121.5368492460213,25.053400020603608,建國北路高架橋下C區,建國北路橋下(南京東路-四平迴轉道),1,07:30-21:30計時40元/時。,2508-1533,133.0,,,,00:00:00~23:59:59,2019-07-05 00:38:00,為橋下停車場，計有133個小型車停車格。
236,臺北市,中山區,121.53686245273515,25.05419985910755,建國北路高架橋下D區,建國北路橋下(四平迴轉道-長春路),1,07:30-21:30計時40元/時。,2508-1533,120.0,,,,00:00:00~23:59:59,2019-07-05 00:38:00,為橋下停車場，計有133個小型車停車格。
237,臺北市,中山區,121.53696916896105,25.056568887516715,建國北路高架橋下E區,建國北路橋下(興安街-興安迴轉道),1,07:30-21:30計時30元/時。,2508-1533,70.0,,,,00:00:00~23:59:59,2019-07-05 00:38:00,為橋下停車場，計有70個小型車停車格。
238,臺北市,中山區,121.53693077014368,25.057189163623203,建國北路高架橋下F區,建國北路橋下(興安迴轉道-民生東路),1,07:30-21:30計時30元/時。,2508-1533,105.0,,,,00:00:00~23:59:59,2019-07-05 00:38:00,為橋下停車場，計有105個小型車停車格。
239,臺北市,中山區,121.53697571616681,25.05930174676763,建國北路高架橋下G區,建國北路橋下(民生東路-錦州街),1,07:30-21:30計時40元/時。,2508-1533,255.0,,,,00:00:00~23:59:59,2019-07-05 00:38:00,為橋下停車場，計有255個小型車停車格。
240,臺北市,中山區,121.53695346416605,25.06075705921898,建國北路高架橋下H區,建國北路橋下(錦州街-民權東路),1,07:30-21:30計時40元/時。,2508-1533,246.0,,,,00:00:00~23:59:59,2019-07-05 00:38:00,為橋下停車場，計有246個小型車停車格。
241,臺北市,中山區,121.53704418928295,25.06337080338027,建國北路高架橋下IA區,建國北路橋下(民權東路-五常街),1,07:30-21:30計時40元/時。,2508-1533,57.0,,,,00:00:00~23:59:59,2019-07-05 00:38:00,為橋下停車場，計有57個小型車停車格。
242,臺北市,中山區,121.53701312691412,25.06444191318443,建國北路高架橋下IB區,建國北路橋下(五常街-農安街),1,07:30-21:30計時40元/時。,2508-1533,142.0,,,,00:00:00~23:59:59,2019-07-05 00:38:00,為橋下停車場，計有142個小型車停車格。
243,臺北市,中山區,121.5360774422328,25.065841843142625,建國北路高架橋下J區,建國北路橋下(農安街-民族東路),1,07:30-21:30計時40元/時。,2508-1533,113.0,,,,00:00:00~23:59:59,2019-07-05 00:38:00,為橋下停車場，計有113個小型車停車格。
244,臺北市,大安區,121.53779270882336,25.027896173918567,建國南路高架橋下A區,建國南路橋下(忠孝東路-瑞安街244巷),1,"計時(以半小時為計費單位)：07:30-21:30：20元/時，21:30-翌日07:30：10元/時(供建國花市、玉市及藝文特區使用時段禁止停放)；月租：全日月票4,800元/月，平日月票2,500元/月(週日19時至周五21時30分)，夜間月票1,500元/月(周一至周五18時至08時及周六、周日全日)。",2655-0818,292.0,,,,00:00:00~23:59:59,2019-07-05 00:38:00,計有286個小型車停車格
245,臺北市,大安區,121.53782812310223,25.032810666431473,建國南路高架橋下D區,建國南路橋下(建國南路二段39巷-信義路),1,"計時(以半小時為計費單位)：07:30-21:30：20元/時，21:30-翌日07:30：10元/時(供建國花市、玉市及藝文特區使用時段禁止停放)；月租：全日月票4,800元/月，平日月票2,500元/月(週日19時至周五21時30分)，夜間月票1,500元/月(周一至周五18時至08時及周六、周日全日)。",2655-0818,66.0,,,,00:00:00~23:59:59,2019-07-05 00:38:00,計有65個小型車停車格
246,臺北市,大安區,121.53786234977665,25.031642488745273,建國南路高架橋下C區,建國南路橋下(建國南路二段39巷-79巷),1,"計時(以半小時為計費單位)：07:30-21:30：20元/時，21:30-翌日07:30：10元/時(供建國花市、玉市及藝文特區使用時段禁止停放)；月租：全日月票4,800元/月，平日月票2,500元/月(週日19時至周五21時30分)，夜間月票1,500元/月(周一至周五18時至08時及周六、周日全日)。用時段禁止停放)；月租：全日月票4,800元/月，平日月票2,500元/月(週日19時至周五21時30分)，夜間月票1,500元/月(周一至周五18時至08時及周六、周日全日)。",2655-0818,110.0,,,,00:00:00~23:59:59,2019-07-05 00:38:00,計有108個小型車停車格
247,臺北市,大安區,121.53780690904593,25.02915581206717,建國南路高架橋下B區,建國南路橋下(建國南路二段79巷-151巷),1,"計時(以半小時為計費單位)：07:30-21:30：20元/時，21:30-翌日07:30：10元/時(供建國花市、玉市及藝文特區使用時段禁止停放)；月租：全日月票4,800元/月，平日月票2,500元/月(週日19時至周五21時30分)，夜間月票1,500元/月(周一至周五18時至08時及周六、周日全日)。",2655-0818,240.0,,,,00:00:00~23:59:59,2019-07-05 00:38:00,計有240個小型車停車格
249,臺北市,大同區,121.51203172243696,25.07464186603704,啟聰學校地下停車場,延平北路四段205號B1,1,"每小時30元(全程以半小時計費)。月租：全日優惠4,800元，所在里(老師里)優惠3,000元，半徑300公尺鄰近里優惠3,500元，機車計次20元，全日月票300元。本場提供計程車免費一小時服務。",2599-5546,179.0,98.0,,,00:00:00~23:59:59,2019-07-05 00:38:00,立體式小型車179格(含身心障礙停車位4格)。立體式機車98格(含身心障礙停車位4格)。
250,臺北市,北投區,121.52972196445593,25.107353320383254,忠誠路(一)平面停車場,忠誠路、德行東路口,1,"(100.8.1委外)小客車計時30元。全日月票及全日里民優惠月票5000元，夜間里民優惠月票2,800元（使用時段：週一至週五每日19時至翌日8時；另週六、週日與行政機關放假之紀念日、民俗節日全日皆可使用）。",02-2771-2613,23.0,,,,00:00:00~23:59:59,2019-07-05 00:38:00,為平面停車場，計有24個小型車格
251,臺北市,士林區,121.52938391450644,25.10665792671207,忠誠路(二)平面停車場,忠誠路1段與德行東路132巷7弄交叉口旁；士林區芝山段2小段69地號,1,計時：30元/時。月租：全日月票及全日里民優惠月票5000元/月；夜間優惠月票2800元/月(優惠里：忠誠里、蘭雅里、三玉里、聖山里、名山里及岩山里。使用時段：週一至週五每日19時至翌日8時；週六日與行政機關放假之紀念日、民俗節日全日皆可使用。),02-2771-2613,34.0,,,,00:00:00~23:59:59,2019-07-05 00:38:00,為平面停車場，計有35個小型車停車位。
255,臺北市,士林區,121.51483699144754,25.097539648372212,兒童新樂園附設停車場,承德路五段55號,1,"小型車計時：平日日間(8-20)30元/時，假日日間(8-20)40元/時，夜間(20-翌日08)10元/時，全程以半小時計費。機車計次：20元/次，隔日另計。月租：小型車每月3,000元，機車每月300元。",2834-5378,442.0,401.0,,,00:00:00~23:59:59,2019-07-05 00:38:00,計有小型車442格(含身心障礙停車位12格)，機車停車格393格(含身心障礙停車位8格)。
256,臺北市,北投區,121.518234142475,25.115293147741717,振華公園旁平面停車場,振華街36號對面空地,1,"30元/時，停車時數以半小時計算收費。機車免費。全日月租：一般月票3,600元，里民優惠月票2,880元，所在里里民優惠月票2,520元。",2231-6406,235.0,,,,00:00:00~23:59:59,2019-07-05 00:38:00,共有240個小型車格，8個機車格
257,臺北市,士林區,121.51862688858044,25.087188356777148,福港街平面停車場,福港街149巷2號,1,"計時30元/時，（全程以半小時計費）。全日月票7,200元/月，里民優惠月票5,760元/月，所在里民優惠月票5,040元/月。",2231-6406,65.0,,,,00:00:00~23:59:59,2019-07-05 00:38:00,為廣場停車場，計有65個小型停車格
258,臺北市,中山區,121.52203235710482,25.075169389547053,兒童育樂中心平面停車場,玉門街與敦煌路口兒童育樂中心旁,1,"計時30元/時，全程以半小時計費。全日月票7,200元/月，全日里民優惠月票5,760元/月（大同區重慶里、保安里、士林區明勝里），所在里民優惠月票5,040元（中山區圓山里）。",2455-1299,88.0,,,,00:00:00~23:59:59,2019-07-05 00:38:00,為橋下停車場，計有91個小型車停位 
259,臺北市,中山區,121.52364809345951,25.068016279582057,中山北路三段55巷平面停車場,中山北路3段55巷,1,"計時40元/時，以半小時計費，未滿半小時以半小時計。月租9,600元/月，里民優惠7,680元/月（集英里、晴光里），所在地里民優惠月票6,720元/月。",2455-1299,58.0,,,,00:00:00~23:59:59,2019-07-05 00:38:00,為平面停車場，計有59個小型停車格
260,臺北市,松山區,121.55093112179847,25.051243926416998,臺北小巨蛋地下停車場,南京東路4段2號B2,1,"平日40元/時，假日60元/時，全程以半小時計費。月租5,000元/月。",2793-5818,460.0,,,,00:00:00~23:59:59,2019-07-05 00:38:00,為地下停車場，計有476個小型車格
261,臺北市,士林區,121.51096349179977,25.087896380581785,百齡橋旁平面停車場,士林社中街(近社正路),1,"計時：20元/時（全程以半小時計費）。月租：4,800元/月，（士林區葫東里、葫蘆里、社新里、社園里）里民優惠3,840元/月，（士林區社子里）所在里民優惠3,360元/月。",2786-7755,140.0,,,,00:00:00~23:59:59,2019-07-05 00:38:00,為平面停車場，計有145個小型車停車格。
264,臺北市,大安區,121.55650771273136,25.033741661959034,便利停車場大安地政事務所站,信義路4段335巷6號B1~B3,1,"計時：汽車80元/時，洽公民眾30分內免費；全程以半小時計費。月租：汽車全日9,000元；日間(08-20)、夜間(18-09)6,000元/月；員工1,000元。計次：機車10元/次(隔日另計)。",2799-1001-155,72.0,157.0,,,00:00:00~23:59:59,2019-07-05 00:38:00,為平面停車場，計有70個小型車，157個機車格
266,臺北市,士林區,121.53135078289354,25.10197583009447,至誠平面停車場,至誠路1段295號對面,1,"(97.12.14委外)每半小時10元。全日月票4,800元，全日里民優惠月票3,840元，所在里(士林區名山里)全日里民優惠月票3,360元，身心障礙者憑證購買前述月票可享半價優惠。",2455-1299,81.0,,,,00:00:00~23:59:59,2019-07-05 00:38:00,計有83個小型停車格
267,臺北市,北投區,121.46571657868263,25.120332177951962,關渡醫院旁平面停車場,大度路3段301巷,1,"(100.10.24委外)計時20元。全日月票最高4,800元，所在里(關渡里)里民優惠月票3,360元，身心障礙者憑證購買月票半價。",2568-3383,33.0,,,,00:00:00~23:59:59,2019-07-05 00:38:00,為平面停車場，計有34個小型停車格位
268,臺北市,北投區,121.50289639506876,25.121220855925106,公館路平面停車場,公館路.西安路口,1,"(100.10.24委外)計時30元，全日月票7200元。全日里民優惠月票5,760元，所在里(八仙里)里民優惠月票5,040元，身心障礙者憑證購買月票半價",2568-3383,129.0,,,,00:00:00~23:59:59,2019-07-05 00:38:00,為平面停車場，計有132個小型停車位
269,臺北市,士林區,121.52077228996369,25.115545253793893,明德臨時平面停車場,明德路315號對面,1,"計時：30元/時(全程以半小時收費)。月租：全日里民優惠5,760元，所在里里民優惠5,040元。",2568-3383,29.0,,,,00:00:00~23:59:59,2019-07-05 00:38:00,一般平面式小型車29格(含身心障礙停車位1格)。
271,臺北市,內湖區,121.56088388527887,25.086475540412568,文湖平面停車場,文湖街21巷口文湖國小旁,1,"計時：20元/時，全程以半小時收費。月租：全日里民優惠3,860元/月（內湖區西安里 中山區金泰里），所在地里民優惠3,360元/月（內湖區西康里）。",2754-6661-18,34.0,,,,00:00:00~23:59:59,2019-07-05 00:38:00,一般平面式小型車33格(含身心障礙停車位1格)。
272,臺北市,中山區,121.54188757099224,25.054071558271374,龍江平面停車場,龍江路155巷與遼寧街口,1,"計時：30元/時，全程以半小時計費。月租：全日7,200元/月，全日里民優惠5,760元/月(龍州里、朱馥里、力行里、松基里、中正里)。全日所在里里民優惠5,040元/月(復華里)。",2754-6661-18,26.0,,,,00:00:00~23:59:59,2019-07-05 00:38:00,一般平面式小型車28格(含身心障礙停車位1格)。
283,臺北市,大同區,121.51014893785756,25.06308574080809,臺北大橋橋下停車場,環河北路2段至延平北路3段間之臺北大橋橋下空間,1,小型車每小時30元，全程以半小時計算收費。全日月票7200元；全日里民優惠月票最高4600元(大有里、延平里、隆和里、國順里)；全日所在里里民優惠月票3840元(南芳里、景星里)。機車免費,24551299,89.0,222.0,,,00:00:00~23:59:59,2019-07-05 00:38:00,為橋下平面停車場，計有89個小型車格，194格機車格
297,臺北市,文山區,121.57480424360844,24.99950655954713,和平東路四段３８１巷平面停車場,和平東路四段381巷內,1,"每半小時10元。全日月票4,800元，全日里民優惠月票3,840元，所在里(文山區博嘉里)全日里民優惠月票3,360元，身心障礙者憑證購買前述月票均可享有半價優惠。",0968-198-685,24.0,,,,00:00:00~23:59:59,2019-07-05 00:38:00,為平面停車場，計有25個小型車停車位。
298,臺北市,文山區,121.54288747724064,24.99839357906532,三福街平面停車場,景隆街36巷內,1,"(100.2.1委外)計時20元。全日月票4,800元，全日月票3,840元/月(景仁里、景華里、興福里及興豐里)。全日月票3360元/月(萬有里)，身心障礙者憑證購買月票半價。", ,38.0,,,,00:00:00~23:59:59,2019-07-05 00:38:00,為平面停車場，計有39個小型停車格。
299,臺北市,士林區,121.53644442208116,25.1160866684823,台北市立大學天母校區地下停車場,忠誠路2段101號,1,假日40元/時，平日20元/時(全程以半小時計費)。月租：4800元/月。,2542-1553,462.0,343.0,,,00:00:00~23:59:59,2019-07-05 00:38:00,為立體地下停車場，計有472個小型車格
300,臺北市,松山區,121.56122357398851,25.050334369543005,吉祥平面停車場,光復北路11巷81號旁,1,"計時：30元/時，全程以半小時計費。月租：全日7,200元/月；里民優惠5,760元/月(東光里、復盛里)，所在里里民優惠5,040元/月(吉祥里)。",8981-5480,31.0,,,,00:00:00~23:59:59,2019-07-05 00:38:00,為一般平面式小型車30格(含身心障礙停車位1格)。
301,臺北市,南港區,121.60374318126101,25.052106939931356,南港車站地下停車場,忠孝東路七段265巷1號B1~B3,1,"小型車：計時40元/時(全程以半小時計費)，月租:4,000元/月。機車：計次50元/次，月租600元/月。汽機車進場未滿半小時免收費。",2651-9756,1123.0,1073.0,,,00:00:00~23:59:59,2019-07-05 00:38:00,立體式小型車1100格(含身心障礙停車位23格)。立體式機車1052格(含身心障礙停車位21格)。
302,臺北市,大同區,121.4961164493284,25.06503686014463,正義國小地下停車場,三重區信義西街31號B1、B2及B3,1,計時:40元/時，全程以半小時計費,2834-5308,10.0,,,,00:00:00~23:59:59,2019-07-05 00:38:00,立體式多目標附建停車場，計有298個小型車
303,臺北市,大同區,121.49743393286184,25.06852180585605,正義公園地下停車場,新北市三重區雙園街1號地下1樓,1,小型車計時每小時20元，小型車月租每月4000元。,2983-6614,196.0,,,,00:00:00~23:59:59,2019-07-05 00:38:00,立體式多目標附建停車場，計有196格小型停車格。
304,臺北市,萬華區,121.48324407062876,25.026646607843965,華翠橋下A、B、G區停車場,新北市板橋區華翠橋下A、B、G區停車場,1,小型車月租每月2000元，小型車月租每月2400元，小型車計時每小時20元。,2954-7436,149.0,,,,00:00:00~23:59:59,2019-07-05 00:38:00,平面式多目標附建停車場，計有149格小型停車格。
305,臺北市,萬華區,121.48363017169598,25.02782352462746,新北市萬板大橋停車場,萬板大橋板橋端至14號橋墩下方空間(不含道路、19號橋墩至20號橋墩間龍翠聯合活動中心、20號橋墩至22號橋墩間新北市溪,1,小型車計時每小時20元，小型車月租每月3000元。,2246-1708,389.0,,,,00:00:00~23:59:59,2019-07-05 00:38:00,立體式多目標附建停車場，計有389格小型停車格。
306,臺北市,萬華區,121.50653495964559,25.011027136365854,永和仁愛公園地下停車場,永和區仁愛路244-1號B1、B2,1,小型車計時每小時20元，小型車月租每月2000元，小型車月租每月3200元，小型車月租每月4000元。,8660-0573,645.0,,,,00:00:00~23:59:59,2019-07-05 00:38:00,立體式多目標附建停車場，計有645格小型停車格
308,臺北市,士林區,121.5100176740937,25.07868777269273,延平北路5段1巷平面停車場,延平北路5段1巷,1,計時：20元/時，(全程以半小時計費)。機車免費。,2813-7344,154.0,17.0,,,00:00:00~23:59:59,2019-07-05 00:38:00,一般平面式小型車157格(含身心障礙停車位3格)。一般平面式機車17格(含身心障礙停車位1格)。
309,臺北市,文山區,121.54473622294226,25.002600063173414,景豐臨時平面停車場,景豐街79號旁,1,"(100.2.1委外)計時20元。全日月票4,800元，全日里民優惠月票3,840元(萬盛里、萬祥里及萬有里)，全日月票3360元/月(興豐里)，身心障礙者憑證購買月票半價。",  ,43.0,,,,00:00:00~23:59:59,2019-07-05 00:38:00,計有44個小型車停車位
310,臺北市,北投區,121.4676840993309,25.128117902782932,中央北路四段平面停車場,中央北路四段542號旁,1,"(97.11.1委外)計時每半小時10元。全日月票4,800元，全日里民優惠月票3,840元，所在里(一德里)全日里民優惠月票3,360元，身心障礙者憑證購買月票半價",2568-3383,25.0,,,,00:00:00~23:59:59,2019-07-05 00:38:00,為平面停車場，計有26個小型停車位
311,臺北市,士林區,121.5312624047902,25.125405417375127,天母公園平面停車場,中山北路7段191巷21號對面(天母公園旁),1,"計時：小型車30元/時(以半小時收費)。月租：全日里民優惠5,760元(優惠里：士林區天和里、天山里、北投區永和里、永欣里；所在里里民優惠5,040元（士林區天母里）。",2568-3383,15.0,,,,00:00:00~23:59:59,2019-07-05 00:38:00,一般平面式小型車14格(含身心障礙停車位1格)。
312,臺北市,北投區,121.52618655615312,25.1238176256564,行義路平面停車場,行義路與石牌路2段交叉口(行義路1號對面),1,"計時：小型車30元/時(全程以半小時收費)。月租：全日里民優惠5,760元(優惠里：士林區天母里、天玉里、北投區永和里)所在里里民優惠5,040元(所在里：北投區永欣里)。",2568-3383,18.0,,,,00:00:00~23:59:59,2019-07-05 00:38:00,一般平面式小型車21格(含身心障礙停車位1格)。
313,臺北市,士林區,121.51053937619987,25.08969604619265,社中街平面停車場,社中街94號旁,1,20元/時，全程以半小時計費。全日月租4800元/月，全日月租里民優惠(社子里、社園里、社新里及葫東里)2880元/月,2655-1516,30.0,,,,00:00:00~23:59:59,2019-07-05 00:38:00,為平面停車場，計有31個小型車停車格
314,臺北市,士林區,121.50907516238004,25.088068987248747,社正路平面停車場,社正路12號旁,1,小型車30元/時，全程以半小時計費。全日月租7200元/月，里民優惠5760元(優惠里社園里、社新里、葫東里及葫蘆里)，所在地里優惠月票5040元(社子里),2655-1516,31.0,,,,00:00:00~23:59:59,2019-07-05 00:38:00,為平面停車場，計有31個小型車停車位。
317,臺北市,萬華區,121.49984629850206,25.0347637839671,臺北市萬華區行政中心地下停車場,和平西路3段120號B2-B5,1,"計時：30元(08-22)/時，10元(22-08)/時，全程以半小時計。洽公便民於停車上班時間08-20時止，經驗證後，前30分鐘免費。月租：全日9,600元/雙月，日間(07-19)、夜間(19-07)4,800元/雙月，里民7,680元/雙月。身心障礙優惠全4,800元/雙月，日間(07-19)、夜間(19-07)2,400元/雙月，里民3,840元/雙月。",2306-4468,210.0,,,,00:00:00~23:59:59,2019-07-05 00:38:00,為地下停車場，計有215格小型車格，66格機車格。
318,臺北市,萬華區,121.49134965009635,25.035433567573165,華江橋下雙層停車場,和平西路3段382巷對面(華江橋下),1,"小型車：每小時20元(全程以半小時計費)。月租：4,800元，里民(華江、糖廍、綠堤、青山、柳鄉)優惠3,000元。機車：每次20元，每日零時重新計算，月租300元。",2305-6557,157.0,233.0,,,00:00:00~23:59:59,2019-07-05 00:38:00,為橋下雙層停車場，計有115個小型停車格，228個機車格
319,臺北市,萬華區,121.4949839363307,25.016771279666127,東園平面停車場,環河南路3段327號對面(環河南路3段快速道路高架段第4-8橋柱間空間),1,"小型車：每小時20元（全程以半小時計費）；月租4,800元，里民(華中、榮德、興德)優惠3,000元。",2305-6557,77.0,,,,00:00:00~23:59:59,2019-07-05 00:38:00,為平面停車場，計有74個小型車
320,臺北市,南港區,121.58900451580871,25.04944922657119,昆陽捷運站旁平面停車場,忠孝東路六段187號至297號對面(共分3區域)。,1,"計時：30元/時(06-24)，10元/時(24-06)，全程以小時計費。月租：全日3,200元，全日雙月6,400元，日間1,500元(週一至週五06-21)，夜間1,300元(每日19-隔日08)。",04-23388515,47.0,,,,00:00:00~23:59:59,2019-07-05 00:38:00,(一區)一般平面式小型車47格(含身心障礙停車位4格)，3個區總計124格小型車。
321,臺北市,南港區,121.58900451580871,25.04944922657119,昆陽捷運站旁平面停車場(二),忠孝東路六段187號至297號對面(共分3區域)。,1,"計時：30元/時(06-24)，10元/時(24-06)，全程以小時計費。月租：全日3,200元，全日雙月6,400元，日間1,500元(週一至週五06-21)，夜間1,300元(每日19-隔日08)。",04-23388515,41.0,,,,00:00:00~23:59:59,2019-07-05 00:38:00,(二區)一般平面式小型車41格，3個區總計124格小型車。
322,臺北市,南港區,121.58900451580871,25.04944922657119,昆陽捷運站旁平面停車場(三),忠孝東路六段187號至297號對面(共分3區域)。,1,"計時：30元/時(06-24)，10元/時(24-06)，全程以小時計費。月租：全日3,200元，全日雙月6,400元，日間1,500元(週一至週五06-21)，夜間1,300元(每日19-隔日08)。",04-23388515,36.0,,,,00:00:00~23:59:59,2019-07-05 00:38:00,(三區)一般平面式小型車36格，3個區總計124格小型車。
324,臺北市,信義區,121.57321650675814,25.03437990431857,松德停車場,松勇路53巷68號對面空地；信義段三小段37-1、37-2地號。,1,"40元/時，停車未滿1小時以1小時計，逾1小時以上者，未滿半小時以半小時計。月票：全日4,000元，日間(8-18)2,500元，夜間(18-8)2,500元。",2246-1708-15,52.0,,,,00:00:00~23:59:59,2019-07-05 00:38:00,一般平面式小型車54格(含身心障礙停車位2格)。
326,臺北市,文山區,121.54712944647581,24.999665087070788,興隆市場旁停車場,興隆路二段97號旁,1,"計時：20元/時，全程以半小時計費。月租：全日4,800元，里民優惠全日3,840元/月(興福里、興邦里及興安里)，3,360元/月(興豐里)。",2455-1299,36.0,,,,00:00:00~23:59:59,2019-07-05 00:38:00,為廣場平面停車場，計有43個小型車停車格。
327,臺北市,文山區,121.5354189090615,25.004191604821223,溪洲街平面停車場,汀州路4段、溪洲街口,1,"計時：20元/時，全程以半小時計費。月租：全日4,800元/月，里民優惠全日3,840元/月(萬年里、萬隆里)、3,360元/月(萬和里)。",2455-1299,18.0,,,,00:00:00~23:59:59,2019-07-05 00:38:00,為平面停車場，計有19個小型車停車格。
328,臺北市,信義區,121.56367342981973,25.02512652915007,吳興街284巷臨時平面停車場,吳興街284巷與吳興街260巷21弄交叉口旁,1,"計時：30元/時(全程以半小時收費)。月租：全日7,200元，里民優惠3,840元(雙和、惠安、三張、景勤、及景新等里3,840元/月。機車免費。",2455-1299,51.0,40.0,,,00:00:00~23:59:59,2019-07-05 00:38:00,為平面停車場，計有50格小型車，39格機車
331,臺北市,中正區,121.52891899858284,25.019425435798784,耕莘文教院前平面停車場,辛亥路1段22號前,1,"汽車計時:30元/時(全程以半小時計費)。月租：全天7,200元/月，里民優惠5,760元/月(大安區古風里、大學里);所在里里民優惠5,040元/月(中正區林興、文盛李)",2455-1299,57.0,,,,00:00:00~23:59:59,2019-07-05 00:38:00,為平面停車場，計有57個小型停車格
333,臺北市,中正區,121.52084831684549,25.02099069438321,同安街平面停車場,同安街101巷與水源路交叉旁,1,"汽車計時:20元/時(全程以半小時計費)。月租:全天4,800元/月;里民優惠3,840元/月(中正區網溪、林興里);所在里里民優惠3,360元/月(中正區河堤里)",2455-1299,21.0,,,,00:00:00~23:59:59,2019-07-05 00:38:00,為平面停車場，計有21個小型車格
334,臺北市,文山區,121.55948619177241,24.99689886849748,台北市文山運動中心停車場,興隆路3段222號B1~B2,1,"計時：30元/時，全程以半小時計費。月租：4,200/月，9,450/季。",2230-8268-223,79.0,,,,00:00:00~23:59:59,2019-07-05 00:38:00,為地下停車場，計有79個小型車格
335,臺北市,萬華區,121.493544028038,25.03416100441073,大理地下停車場,環河南路2段127號旁地下室,1,"計時：20元/時(全程以半小時計費)。月租：4,800元，里民(糖廍、青山、柳鄉、華江、綠堤、和平里)優惠3,000元/月。",2252-5022,51.0,,,,00:00:00~23:59:59,2019-07-05 00:38:00,為立體地下停車場，計有55個小型車格
336,臺北市,信義區,121.57814991984829,25.04918428520086,松山火車站東側機車停車場,松山路11號(松山火車站東西區地下機車停車場,1,"計時：30元/時，全程以半小時計費，當日最高收費50元。月租：1,000元/月，里民優位9折(慈佑里、四育里、永吉里、合成里、玉成里)",0900-768-754,,1685.0,,,00:00:00~23:59:59,2019-07-05 00:38:00,計有547格機車格(含7個身障)
338,臺北市,北投區,121.47140149027248,25.126824416092,好市多北投分公司,台北市北投區立德路117號,1,計時：100元/時，未滿30分鐘免費，停車未滿1小時以1小時計，停車逾1小時以上未滿半小時以半小時計。消費滿500元(含)折抵3小時，每日最多3小時計,0986-268-598,704.0,240.0,,,00:00:00~23:59:59,2019-07-05 00:38:00,立體式小型車690格(含身心障礙停車位14格)。立體式機車235格(含身心障礙停車位5格)。
339,臺北市,中山區,121.53735126132489,25.067651063087425,濱江市場地下停車場,民族東路336號地下,1,"計時：30元/時，停車未滿1小時以1小時計，逾1小時以上者，未滿半小時以半小時計。月租：全日4,800元，夜間2,000元(18-8)。行孝里里民3,360元、行仁里、行政里、大佳里、下埤里里民3,840元。身障月票上述票價半價。",2516-2519-1125,349.0,,,,00:00:00~23:59:59,2019-07-05 00:38:00,計有350格小型車停車格。
340,臺北市,南港區,121.60652167763573,25.052425232229833,南港立體停車場,忠孝東路七段359、369號5~12樓,1,"計時：40元/時，停車未滿1小時以1小時計，停車逾1小時以上者，未滿半小時以半小時計費。月租：全天4,000元。",2788-8750-8817,406.0,,,,00:00:00~23:59:59,2019-07-05 00:38:00,立體式小型車406格(含身心障礙停車位12格)
341,臺北市,內湖區,121.58684212414177,25.05925299623755,台北企業總部湖區地下停車場,台北市內湖區南京東路六段370號地下1、2樓,1,"計時：50元/時，停車未滿1小時，以1小時計，逾1小時以上，未滿半小時以半小時計費。月租：6,000元/月。",2703-4620,348.0,,,,00:00:00~23:59:59,2019-07-05 00:38:00,立體式小型車348格(含身心障礙停車位7格)。
342,臺北市,中正區,121.52991673519405,25.013771277479343,國立臺灣大學水源停車場,福和段2小段267-28地號；思源街18號,1,"計時：30元/時，停車未滿1小時以1小時計，逾1小時以上者，未滿半小時以半小時計。月租：全日7,000元，日間(07-18)5,500元，夜間(18-08)3,000元，一次繳納6個月以上，可享9折優惠，以享優惠除外。",3366-3366,146.0,,,,00:00:00~23:59:59,2019-07-05 00:38:00,一般平面式小型車143格(含身心障礙停車位3格)。
343,臺北市,內湖區,121.5761430405814,25.06396327614445,好市多內湖分公司,臺北市舊宗路1段268號B1-B3,1,依現場公告。,87910110,690.0,,,,00:00:00~23:59:59,2019-07-05 00:38:00,一般平面式小型車690格。
355,臺北市,南港區,121.58670674136219,25.046470948432628,臺北市立聯合醫院忠孝院區停車場,台北市南港區同德路87號地下2樓,1,"汽車計時：40元/時。全程以半小時計費。停車前30分鐘內離場免費，汽車月票：全日月租6,000元。",2788-8750-8813,20.0,,,,00:00:00~23:59:59,2019-07-05 00:38:00,建物附設立體式小型車20格(含身心障礙停車位1格)。
356,臺北市,中正區,121.51929048917236,25.029082624290567,臺北市立聯合醫院和平婦幼院區停車場,臺北市中正區福州街12號,1,"汽車計時：40元/時。全程以半小時計費。停車前30分鐘內離場免費，汽車月票：全日月租6,000元。",2788-8750-8813,8.0,,,,00:00:00~23:59:59,2019-07-05 00:38:00,建物附設一般平面式小型車8格(含身心障礙停車位1格)。
357,臺北市,中正區,121.5073491367443,25.035604606303895,臺北市立聯合醫院和平院區停車場,台北市中正區中華路2段33號,1,計時：40元/時。全程以半小時計費。入場前30分鐘免費。,2788-8750-8813,9.0,,,,00:00:00~23:59:59,2019-07-05 00:38:00,建物附設一般平面式小型車9格(含身心障礙停車位1格)。
358,臺北市,大安區,121.54500502250539,25.03748336372789,臺北市立聯合醫院仁愛院區停車場,台北市大安區仁愛路四段10號,1,"計時：40元/時，停車前30分鐘內離場免費，全程以半小時計費，月租：全日6,000元/月。",2788-8750-8813,41.0,,,,00:00:00~23:59:59,2019-07-05 00:38:00,建物附設平面式小型車41格(含身心障礙停車位1格)。
359,臺北市,大同區,121.50857919910759,25.051065447217173,臺北市立聯合醫院中興院區停車場,台北市大同區鄭州路145號,1,"1.汽車計時：40元/時,全程以半小時計費。2.停車30分鐘內離場免費。3.汽車月票：全日月租6,000元。",2788-8750-8813,80.0,,,,00:00:00~23:59:59,2019-07-05 00:38:00,建物附設平面式小型車80格(含身心障礙停車位3格)。
360,臺北市,士林區,121.53164897365832,25.105659451917305,臺北市立聯合醫院陽明院區停車場,台北市士林區雨聲街105號,1,"汽車計時:40元/時，全程以半小時計費。停車30分鐘內離場免費，汽車月票：全日月租6,000元。",2788-8750-8813,39.0,,,,00:00:00~23:59:59,2019-07-05 00:38:00,建物附設一般平面式小型車39格(含身心障礙停車位1格)。
361,臺北市,南港區,121.61888559735313,25.05582707041888,台北南港展覽館停車場,台北市南港區經貿二路1號B1,1,"1.非展覽期:汽車30元/時,15分鐘離場者免費,停放15分鐘至1小時者以1小時計,逾1小時以上,未滿半小時以半小時計。每日最高收費150元,逾22時需另付過夜停車費300元。2.展覽期間:汽車60元/時，未滿1小時以1小時計,逾1小時以上,未滿半小時以半小時計,每日最高收費250元,逾22時需另付過夜停車費300元。3.機車30元/次(隔日另計)。4.員工/協力廠商汽車月租1,000/2,500元。員工與協力廠商機車月租200元。非本館員工及協力廠商汽/機車月租5,000/1,000元。",2725-5200-5515,607.0,1806.0,,,00:00:00~23:59:59,2019-07-05 00:38:00,為立體停車場，計有620個小型車格(含身心障礙停車位13格)，1770個機車格(含身心障礙停車位36格)。
364,臺北市,中正區,121.51669001662552,25.031203271262754,好亭南昌路停車場,台北市中正區南昌路一段54巷8號,1,費率平日30元/時. 假日40元/時,0965-513-500,17.0,,,,00:00:00~23:59:59,2019-07-05 00:38:00,計17個小型車停車格位
365,臺北市,大同區,121.51383015306709,25.059124980821014,全國停車場重慶站,重慶北路2段171號F2-F7及屋突一層,1,"計時：50元/時，停車未滿1小時以1小時計，逾1小時以上者，未滿半小時以半小時計費。機車20元/次。月租：全日5,000元。身心障礙者比照收費。",2553-9533,481.0,,,,00:00:00~23:59:59,2019-07-05 00:38:00,計有481格小型停車格，564格機車格
372,臺北市,松山區,121.57171290841205,25.04971639368266,八德立體停車場,台北市松山區八德路四段568號,1,"計時：汽車週一至週四40元/時，週五至週日，政府行政機關放假之紀念日、民俗節日、政政機關彈性調整放假日50元/時，全程半小時計費。月租：汽車全日4,800元/月，全日里民優惠3,840元/月(新東里、安平里、新聚里、新仁里、雅祥里、四育里、五常里)，所在地里全日里民優惠3,360元/月(慈佑里)，機車全日300元/月。計次：機車20元/次(凡跨越每日凌晨零時起加計1次)。",2793-5818,310.0,382.0,,,00:00:00~23:59:59,2019-07-05 00:38:00,建物附設立體式小型車310格(含身心障礙停車位8格)。建物附設立體式機車382格(含身心障礙停車位9格)。
373,臺北市,內湖區,121.59666758987964,25.066329976626573,臺北市網球中心停車場,民權東路6段208號地上1層、地下1層,1,"臨停:汽車30元/時(以半小時計費)，機車20元/次(限當日)
月租:4,000元/月",26275708,346.0,537.0,,,00:00:00~23:59:59,2019-07-05 00:38:00,立體式小型車338格(含身心障礙停車位8格)。立體式機車526格(含身心障礙停車位11格)。
374,臺北市,內湖區,121.61921642337916,25.07260849658101,康樂合署大樓地下停車場,康樂街150號地下室,1,"計時：小型車30元/時。機車40元/時，最高收費上限20元。（全程以半小時計費）月租：小型車4,000元/月，里民優惠月票3,200元/月(內湖區安泰里、內溝里、東湖里)，所在地里民優惠月票2,800元/月(內湖區康樂里)。機車300元/月。",2563-2408,53.0,31.0,,,00:00:00~23:59:59,2019-07-05 00:38:00,建物附設立體式小型車53格(含身心障礙停車位2格，孕婦、育有6歲以下兒童停車位1格)。建物附設立體式機車31格(含身心障礙停車位1格)。
375,臺北市,北投區,121.51882506418544,25.11898398524352,臺北榮民總醫院第三門診停車場,臺北市北投區石牌路2段201號地下B2、B3,1,計時:40元/時(07-23)，夜間:20元/時(23-隔日07),28757003,120.0,,,,00:00:00~23:59:59,2019-07-05 00:38:00,立體式小型車120格(含身心障礙停車位5格)。
376,臺北市,北投區,121.52131443562395,25.119718436921158,台北榮民總醫院地面停車場,石牌路2段201號,1,40元/時，30分鐘內免費，夜間20元(23~07)/時,2875-7843,323.0,,,10.0,00:00:00~23:59:59,2019-07-05 00:38:00,計有323個小型車停車位，10個大型車停車位。
377,臺北市,北投區,121.52052348549142,25.119133042224032,臺北榮民總醫院2號門地下室停車場,石牌路2段201號B1,1,40元/時，進場未滿30分鐘免費，20元/時(23-07),2875-7843,366.0,,,,00:00:00~23:59:59,2019-07-05 00:38:00,立體式小型車366格(含身心障礙停車位8格)。
378,臺北市,北投區,121.5194031140708,25.119165951717857,台北榮民總醫院立體停車場,石牌路2段201號B2~地上10樓,1,40元/時，夜間20元(23~07)/時，進場未滿30分鐘免費,FAX-02-2875-7843,906.0,,,,00:00:00~23:59:59,2019-07-05 00:38:00,為立面停車場，計有906個小型車格
379,臺北市,中山區,121.53764611266013,25.057628137898632,民生建國大樓停車場,民生東路3段2號及6號地下1樓至地下4樓,1,"計時：100元/時，停車未滿1小時以1小時計，逾1小時以上者，未滿半小時以半小時計。月租：全天12,000元/月，日間10,000元/月。",2501-8606,314.0,,,,00:00:00~23:59:59,2019-07-05 00:38:00,建物附設立體式小型車314格(含身心障礙停車位6格)。
381,臺北市,南港區,121.6153080507612,25.05607991281229,嘟嘟房南港展覽館2站停車場,臺北市南港區經貿2路2號B1至B3,1,"一、非展覽期：汽車30元/時，15分鐘離場者免費，停放15分鐘至1小時以1小時計，逾1小時以上，未滿半小時以半小時計。每日最高收費150元，逾22點需另付過夜停車費300元。二、展覽期間：汽車60元/時，停車未滿1小時以1小時計，逾1小時以上者，未滿半小時以半小時計，逾22點需另付過夜停車費300元。機車30/次(隔日另計)。汽車員工/協力廠商月租1,000元/2,500元。機車員工及協力廠商月租200元。非本館員工及協力廠商汽車/機車月租5,000元/1,000元。",26550818,1290.0,1136.0,,,00:00:00~23:59:59,2019-07-05 00:38:00,建物附設立體式小型車1290格(含身心障礙停車位32格，孕婦、育有6歲以下兒童停車位25格)。建物附設立體式機車1136格(含身心障礙停車位24格)。
382,臺北市,南港區,121.6143350555235,25.05965197796337,叭叭房南軟大樓停車場,臺北市南港區經貿2路198號,1,"臨停：100元/時，停車未滿1小時以1小時計，逾1小時以上，未滿半小時以半小時計。月租：10,000元/月。",2655-0000,137.0,0.0,0.0,0.0,00:00:00~23:59:59,2019-12-20 00:00:00,立體式小型車137格(含身心障礙停車位3格)。
383,臺北市,大同區,121.53600903891585,25.057122977124024,大同高中平面停車場,臺北市中山區建國北路2段96巷及建國北路2段96巷2弄巷弄口,1,"計時：40元/時，全程以半小時計費，當日最高240元。月租：全日4,500/月，夜間2,500/月(18-08)。",03-9551115,84.0,0.0,0.0,0.0,00:00:00~23:59:59,2019-12-20 00:00:00,建物附設一般平面式小型車84格(含身心障礙停車位2格，孕婦、育有6歲以下兒童停車位2格)。
386,臺北市,中正區,121.52917302950729,25.014010913982922,嘟嘟房台大水源站停車場,臺北市中正區思源街16號B1、B2,1,"計時：小型車平日30元/時，假日40元/時，特殊節日40元/時，停車未滿1小時以1小時計，逾1小時以上者，未滿半小時以半小時計。機車10元/次。月租：小型車全日6,000元/月。機車全日500元/月。",2655-0818,350.0,3196.0,0.0,0.0,00:00:00~23:59:59,2019-12-20 00:00:00,立體式小型車343格(含身心障礙停車位2格)。立體式機車3134格(含身心障礙停車位62格)。
387,臺北市,南港區,121.61217168303213,25.05870186977305,叭叭房南港二期室內停車場,臺北市南港區園區街3號1樓,1,"臨停：100元/時，全程以半小時計費。月租:12,000元/月。",2655-0000,229.0,0.0,0.0,0.0,00:00:00~23:59:59,2019-12-20 00:00:00,建物附設立體式小型車229格(含身心障礙停車位4格)
388,臺北市,大安區,121.53809803115514,25.034768964285913,建國南路高架橋下E區,建國南路橋下(信義路),1,計時(以半小時為計費單,2708-5428,52.0,0.0,0.0,0.0,00:00:00~23:59:59,2019-12-20 00:00:00,計有52個小型車停車格(含身心障礙停車位1格)
389,臺北市,大安區,121.53802003894829,25.03473593303853,建國南路高架橋下F區,建國南路橋下(建國南路一段341號),1,計時(以半小時為計費單位),2708-5428,175.0,0.0,0.0,0.0,00:00:00~23:59:59,2019-12-20 00:00:00,計有175個小型車停車格(含身心障礙停車位4格)
391,臺北市,大安區,121.53779003690826,25.03725298226869,建國南路高架橋下G區,建國南路橋下(建國南路一段252巷),1,計時(以半小時為計費單位)：,2708-5428,84.0,0.0,0.0,0.0,00:00:00~23:59:59,2019-12-20 00:00:00,計有84個小型車停車格(含身心障礙停車位2格)
392,臺北市,大安區,121.53795103649296,25.038574922877327,建國南路高架橋下H區,建國南路橋下(仁愛路),1,計時(以半小時為計費單位,2708-5428,218.0,0.0,0.0,0.0,00:00:00~23:59:59,2019-12-20 00:00:00,計有218個小型車停車格(含身心障礙停車位4格)
393,臺北市,大安區,121.53706003747452,25.04300100074085,建國南路高架橋下I區,建國南路橋下(濟南路),1,計時(以半小時為計費單位)：,2708-5428,92.0,0.0,0.0,0.0,00:00:00~23:59:59,2019-12-20 00:00:00,計有92個小型車停車格(含身心障礙停車位4格)
394,臺北市,士林區,121.52024603019872,25.091042985997984,叭叭房聖賢大樓停車場,臺北市士林區士商路51、53、55、57號地下1、2樓,1,"計以:100元/時，停車未滿1小時以1小時計，逾1小時以上者、未滿半小時以半小時計。月租:全日10,000/月",2655-0000,55.0,0.0,0.0,0.0,00:00:00~23:59:59,2019-12-20 00:00:00,立體小型車55格(含身心障礙停車位2格)
395,臺北市,內湖區,121.57491204365371,25.07184895584336,叭叭房亞太A區停車場,"舊宗路2段189號B2、B3

",1,"計時：50元/時，停車未滿1小時以1小時計，逾1小時以上者，未滿半小時以半小時計。月租：全日6,000元/月。",2655-0000,154.0,0.0,0.0,0.0,00:00:00~23:59:59,2019-12-20 00:00:00,建物附設立體式小型車106格，機械式小型車48格(含身心障礙停車位5格) 
396,臺北市,內湖區,121.57573704633535,25.071920961737924,叭叭房亞太C區停車場,臺北市內湖區瑞湖街88號B2、B3、B4,1,"計時：50元/時，停車未滿1小時以1小時計，逾1小時以上者，未滿半小時以半小時計。月租：全日6,000元/月。",2655-0000,267.0,0.0,0.0,0.0,00:00:00~23:59:59,2019-12-20 00:00:00,建物附設立體式小型車206格，機械式小型車61格(含身心障礙停車位6格) 
397,臺北市,士林區,121.52094203613302,25.09658194748033,叭叭房新光醫院地下停車場,台北市士林區文昌路95號,1,"計時：80元/時，全程以半小時計費。月租：全日10,000元",2655-0000,84.0,0.0,0.0,0.0,00:00:00~23:59:59,2019-12-20 00:00:00,"建物附設 立體式小型車82格(含身心障礙停車位4格,孕婦、育有六歲以下兒童停車位2格)"
398,臺北市,松山區,121.55986515636043,25.050216624051853,叭叭房大台北瓦斯大樓地下停車場,光復北路11巷33、35號地下3層,1,"計時：100元/時，停車未滿1小時以1小時計，逾1小時以上者，未滿半小時以半小時計。月租：全日10,000元。",2655-0000,107.0,0.0,0.0,0.0,00:00:00~23:59:59,2019-12-20 00:00:00,建物附設立體式小型車102格(含身心障礙停車位5格)
399,臺北市,士林區,121.52026894518771,25.094025947401647,昭財投資股份有限公司基河停車場,臺北市士林區陽明段四小段200-10、200-12、200-16地號;中正路、基河路口空地,1,"計時：50元/時，停車未滿1小時以1小時計，逾1小時以上者，未滿半小時以半小時計。月租：5,000元/月。",02,432.0,0.0,0.0,0.0,00:00:00~23:59:59,2019-12-20 00:00:00,一般平面式小型車432格(含身心障礙停車位9格)。
400,臺北市,士林區,121.5269499941696,25.090782973535557,捷運士林站橋下空間機車停車場,文林路及小北街交叉口,1,計次:20元/次(凡跨越每日凌晨3時起加次1次)。月租:全日250元/月,02,0.0,0.0,0.0,0.0,00:00:00~23:59:59,2019-12-20 00:00:00,一般平面式機車138格(含身心障礙停車位3格)
401,臺北市,士林區,118.75456221939008,0.0,捷運劍潭站橋下空間機車停車場,中山北路五段捷運劍潭站橋下,1,計次:20元/次(凡跨越每日凌晨3時起加次1次)。月租:全日250元/月,02,0.0,0.0,0.0,0.0,00:00:00~23:59:59,2019-12-20 00:00:00,一般平面式機車155格(含身心障礙停車位4格)
402,臺北市,松山區,121.5518180390797,25.051411986566876,嘟嘟房臺北體育館地下停車場,南京東路4段10號地下1、2樓,1,"汽車計時日間(08-20)40元/時，最高上限230元，夜間(20-08)30元/時，全程以半小時計費；月租4500元/月，日間月票3,500元，夜間月租3,000元。",2655-0818,154.0,0.0,0.0,0.0,00:00:00~23:59:59,2019-12-20 00:00:00,立體式小型車154格(含身心障礙4格、親子格位2格)
403,臺北市,士林區,121.52467503190759,25.094546965591675,波力停車場,士林區光華段二小段70、70-1地號；文林路437號旁空地,1,計時：80元/時，全程以半小時計費,2792-9933,36.0,0.0,0.0,0.0,00:00:00~23:59:59,2019-12-20 00:00:00,一般平面式小型車36格(含身心障礙停車位1格)。
404,臺北市,中正區,121.5088240224403,25.039223987580147,城中社福地下停車場,台北市中正區延平南路125號,1,"停車未滿1小時以1小時計，逾1小時以上者，未滿半小時以半小時計。月租：小型車5,400/月，機車480元/月。",02,42.0,92.0,0.0,0.0,00:00:00~23:59:59,2019-12-20 00:00:00,建物附設立體式小型車42格(含身心障礙停車位1格)。建物附設立體式機車92格(含身心障礙停車位2格)。
